{"type":"FeatureCollection","attribution":"© OpenStreetMap contributors, ODbL","features":[{"type":"Feature","properties":{"id":"cankaya","ad":"Çankaya","osm":"relation/1812321"},"geometry":{"type":"Polygon","coordinates":[[[32.62652,39.85224],[32.62949,39.8485],[32.63958,39.84299],[32.64232,39.84073],[32.64433,39.83805],[32.64569,39.83412],[32.64617,39.82651],[32.64556,39.8169],[32.64392,39.80768],[32.64462,39.80403],[32.64603,39.80165],[32.64827,39.79945],[32.65555,39.79549],[32.65938,39.79265],[32.66213,39.78958],[32.66374,39.78698],[32.6655,39.78741],[32.66972,39.79675],[32.6685,39.79796],[32.6714,39.79999],[32.67429,39.80806],[32.67678,39.8078],[32.67833,39.8127],[32.67832,39.81917],[32.68033,39.81925],[32.68001,39.82023],[32.68083,39.82028],[32.68069,39.82139],[32.68194,39.8214],[32.68194,39.82256],[32.68311,39.82314],[32.68269,39.82366],[32.68495,39.8239],[32.68739,39.82161],[32.69407,39.82683],[32.7018,39.82326],[32.70709,39.82274],[32.70961,39.82386],[32.70908,39.82449],[32.71154,39.82483],[32.71273,39.82564],[32.71388,39.82575],[32.71416,39.82639],[32.71442,39.82933],[32.71092,39.83168],[32.71834,39.83381],[32.72956,39.83395],[32.73146,39.83296],[32.73357,39.8308],[32.73392,39.8295],[32.7392,39.82859],[32.7442,39.82931],[32.76269,39.83646],[32.76498,39.83615],[32.76546,39.83211],[32.77005,39.83399],[32.77499,39.83894],[32.77704,39.83817],[32.78174,39.83387],[32.78596,39.83441],[32.78704,39.83407],[32.78794,39.83302],[32.7899,39.83197],[32.79034,39.83101],[32.79379,39.8293],[32.79383,39.82844],[32.79608,39.82806],[32.79583,39.82669],[32.79699,39.81822],[32.80223,39.81055],[32.81065,39.81386],[32.81341,39.81423],[32.81741,39.81402],[32.82054,39.81592],[32.81942,39.82126],[32.82097,39.82317],[32.82346,39.82469],[32.8294,39.8238],[32.83186,39.82426],[32.83245,39.82563],[32.8317,39.82688],[32.82756,39.82951],[32.82838,39.83046],[32.83056,39.82942],[32.83126,39.8296],[32.83451,39.82742],[32.83587,39.82718],[32.83817,39.82527],[32.83905,39.82393],[32.83916,39.82108],[32.84062,39.82002],[32.84339,39.82023],[32.85067,39.81117],[32.85638,39.80775],[32.85878,39.80905],[32.85725,39.81113],[32.85772,39.81183],[32.85454,39.81475],[32.85437,39.81909],[32.85767,39.8196],[32.85957,39.82086],[32.86046,39.82208],[32.85958,39.82243],[32.86052,39.82235],[32.86229,39.82164],[32.8664,39.81806],[32.87797,39.81008],[32.88055,39.8093],[32.88312,39.81014],[32.88498,39.80976],[32.88552,39.80947],[32.88564,39.80827],[32.88663,39.80827],[32.88747,39.80753],[32.88822,39.80588],[32.89078,39.80385],[32.89355,39.80273],[32.89358,39.8018],[32.89609,39.80208],[32.90065,39.79926],[32.90185,39.7993],[32.90461,39.79754],[32.90346,39.79664],[32.90546,39.79381],[32.90658,39.79389],[32.90844,39.79297],[32.91057,39.79272],[32.91306,39.79315],[32.91387,39.79247],[32.91552,39.79333],[32.91651,39.79328],[32.91719,39.7929],[32.91622,39.79144],[32.91837,39.79158],[32.91919,39.79073],[32.91832,39.7896],[32.9194,39.78927],[32.92102,39.78914],[32.92877,39.79104],[32.92893,39.79029],[32.92792,39.78972],[32.9286,39.78844],[32.92852,39.78652],[32.92616,39.78523],[32.92679,39.785],[32.92573,39.78297],[32.92625,39.78202],[32.93039,39.78153],[32.92584,39.77982],[32.92616,39.77796],[32.93368,39.775],[32.93787,39.77054],[32.93083,39.76441],[32.93018,39.76157],[32.92255,39.76086],[32.92049,39.75382],[32.91748,39.74699],[32.91008,39.74386],[32.90639,39.73912],[32.90135,39.73811],[32.90491,39.73677],[32.90326,39.73337],[32.90563,39.73119],[32.90809,39.73038],[32.9149,39.72973],[32.91841,39.72994],[32.91987,39.73056],[32.92003,39.73152],[32.92067,39.73043],[32.92352,39.72866],[32.92371,39.72912],[32.92731,39.72772],[32.93154,39.72842],[32.93359,39.72746],[32.9339,39.72861],[32.93486,39.72871],[32.93742,39.72337],[32.93882,39.72174],[32.93824,39.72169],[32.93922,39.72074],[32.93892,39.71974],[32.9406,39.71955],[32.93971,39.71928],[32.94042,39.719],[32.93881,39.7183],[32.93967,39.7182],[32.93948,39.71758],[32.94206,39.71618],[32.94858,39.71409],[32.94871,39.71244],[32.94791,39.71145],[32.95054,39.70959],[32.95671,39.70684],[32.95971,39.70479],[32.96516,39.7022],[32.96482,39.70188],[32.9674,39.69965],[32.96703,39.70126],[32.96784,39.70131],[32.96777,39.70312],[32.96714,39.70414],[32.96879,39.70653],[32.9706,39.7062],[32.97118,39.70566],[32.96982,39.70071],[32.97009,39.69716],[32.97187,39.69405],[32.97677,39.69259],[32.98015,39.69096],[32.98367,39.68812],[32.98968,39.68584],[32.99468,39.68197],[32.99752,39.68147],[33.00254,39.67962],[33.00131,39.67866],[33.00234,39.67813],[33.00316,39.67665],[33.00307,39.67575],[33.00542,39.67372],[33.00793,39.67229],[33.00797,39.67189],[33.00916,39.67234],[33.01149,39.67107],[33.01439,39.67107],[33.01623,39.6682],[33.01724,39.66757],[33.01646,39.6672],[33.01909,39.66532],[33.0201,39.666],[33.02208,39.66488],[33.02236,39.66515],[33.02041,39.66653],[33.02241,39.6672],[33.02374,39.66602],[33.02486,39.66599],[33.02546,39.66504],[33.02522,39.66355],[33.02624,39.66331],[33.02698,39.66206],[33.02661,39.66099],[33.02776,39.65827],[33.0311,39.66094],[33.03393,39.65976],[33.03563,39.66165],[33.03461,39.66243],[33.04042,39.66608],[33.04026,39.66697],[33.04245,39.66814],[33.04866,39.67604],[33.0573,39.67721],[33.05883,39.67918],[33.05808,39.68117],[33.05888,39.68187],[33.05826,39.68247],[33.05984,39.68343],[33.05544,39.68912],[33.05678,39.69011],[33.056,39.6914],[33.05729,39.69192],[33.0558,39.69375],[33.06167,39.69768],[33.06196,39.69854],[33.07043,39.70335],[33.07063,39.70561],[33.06368,39.71023],[33.05823,39.71206],[33.06303,39.71352],[33.06677,39.71618],[33.07473,39.72048],[33.07961,39.72085],[33.09375,39.72347],[33.09891,39.72503],[33.09953,39.72447],[33.10108,39.72475],[33.10266,39.72627],[33.10302,39.72545],[33.10494,39.72595],[33.11375,39.72214],[33.11605,39.72786],[33.11541,39.72987],[33.11323,39.73147],[33.11483,39.73528],[33.11541,39.73938],[33.12039,39.74273],[33.13242,39.74367],[33.13823,39.74966],[33.14353,39.75012],[33.13992,39.75639],[33.12789,39.76327],[33.10252,39.76119],[33.09118,39.77223],[33.09181,39.77516],[33.08342,39.77913],[33.08188,39.78414],[33.08171,39.78964],[33.08102,39.79409],[33.0672,39.78839],[33.06076,39.78825],[33.057,39.79169],[33.0512,39.79138],[33.04224,39.79562],[33.03914,39.7942],[33.03245,39.79557],[33.02812,39.79772],[33.0274,39.80078],[33.02731,39.79961],[33.02592,39.79818],[33.02383,39.79791],[33.02142,39.79646],[33.0187,39.79561],[33.01824,39.79645],[33.01447,39.79413],[33.01208,39.79371],[33.01196,39.79316],[33.01089,39.79322],[33.01028,39.79256],[33.00903,39.79227],[33.00924,39.79167],[33.00435,39.79151],[33.00527,39.79043],[33.00404,39.79005],[33.00377,39.78918],[33.00046,39.7905],[33.00101,39.78941],[32.997,39.78941],[32.99523,39.78835],[32.99392,39.78897],[32.99392,39.791],[32.99074,39.79106],[32.98474,39.79373],[32.98622,39.79702],[32.98839,39.80001],[32.98881,39.8025],[32.98968,39.803],[32.99003,39.80462],[32.99192,39.80602],[32.9918,39.80636],[32.99504,39.80686],[32.99468,39.80906],[32.99376,39.80897],[32.99366,39.80987],[32.98909,39.81017],[32.98723,39.8131],[32.9866,39.81529],[32.98712,39.81751],[32.98633,39.81805],[32.98519,39.81796],[32.98519,39.8193],[32.98387,39.81992],[32.98427,39.82022],[32.98389,39.82169],[32.9852,39.82328],[32.98268,39.82395],[32.9808,39.82677],[32.97929,39.82636],[32.97918,39.82766],[32.97846,39.82811],[32.97968,39.82915],[32.9788,39.83],[32.97498,39.83102],[32.97156,39.8326],[32.97047,39.83585],[32.96708,39.83788],[32.97039,39.8429],[32.96804,39.84589],[32.96593,39.84746],[32.96473,39.84645],[32.96505,39.84459],[32.96269,39.84428],[32.96088,39.84279],[32.95784,39.84249],[32.95572,39.84382],[32.95366,39.84401],[32.95218,39.84471],[32.94917,39.85045],[32.94838,39.85361],[32.94623,39.85767],[32.94646,39.85953],[32.94536,39.86242],[32.94313,39.86428],[32.94275,39.86737],[32.94179,39.87025],[32.94198,39.87173],[32.94123,39.8735],[32.93611,39.87235],[32.9094,39.87362],[32.89921,39.88126],[32.90405,39.88448],[32.90582,39.8876],[32.90524,39.89059],[32.90438,39.8914],[32.90713,39.89263],[32.90583,39.89374],[32.90118,39.89512],[32.90359,39.8969],[32.90477,39.8998],[32.90203,39.90148],[32.89789,39.90161],[32.89631,39.90256],[32.89503,39.90413],[32.88529,39.91084],[32.88175,39.91141],[32.87919,39.91061],[32.87815,39.91144],[32.8783,39.9128],[32.88013,39.91403],[32.88063,39.91611],[32.87944,39.91825],[32.877,39.91836],[32.87617,39.9193],[32.87697,39.92047],[32.87894,39.92146],[32.88045,39.92188],[32.88391,39.92137],[32.88545,39.92294],[32.88544,39.92352],[32.88256,39.92534],[32.88301,39.9282],[32.88547,39.93129],[32.88493,39.93189],[32.88182,39.93301],[32.87595,39.93453],[32.87209,39.93409],[32.87228,39.9334],[32.8674,39.92882],[32.85546,39.92908],[32.85121,39.92959],[32.84947,39.93066],[32.84571,39.93427],[32.83931,39.93748],[32.8374,39.93503],[32.8279,39.93246],[32.82333,39.93274],[32.81935,39.93147],[32.81602,39.92675],[32.81444,39.92313],[32.81395,39.91948],[32.81449,39.91272],[32.80729,39.911],[32.80498,39.91244],[32.80278,39.91551],[32.80212,39.91537],[32.79925,39.92249],[32.79505,39.92159],[32.78872,39.918],[32.78177,39.91863],[32.77549,39.91648],[32.76927,39.91688],[32.75362,39.91501],[32.74444,39.91255],[32.73571,39.91192],[32.73271,39.91095],[32.73444,39.90831],[32.734,39.90659],[32.69938,39.90522],[32.69594,39.9047],[32.69354,39.90371],[32.67022,39.88943],[32.63628,39.86603],[32.63858,39.86473],[32.63664,39.86234],[32.63637,39.86023],[32.63557,39.86033],[32.63548,39.85786],[32.6342,39.85738],[32.63434,39.85686],[32.63077,39.85586],[32.62652,39.85224]]]}},{"type":"Feature","properties":{"id":"golbasi","ad":"Gölbaşı","osm":"relation/1809464"},"geometry":{"type":"Polygon","coordinates":[[[32.49928,39.62242],[32.49962,39.62017],[32.50451,39.61871],[32.5058,39.61554],[32.50794,39.61581],[32.51035,39.61534],[32.50983,39.61283],[32.51258,39.61237],[32.51962,39.61323],[32.5209,39.61481],[32.52382,39.61561],[32.53532,39.61594],[32.54313,39.61435],[32.54494,39.61521],[32.54631,39.61825],[32.5506,39.61832],[32.55172,39.61554],[32.55627,39.61369],[32.56026,39.61663],[32.56142,39.61514],[32.56468,39.61382],[32.56682,39.61171],[32.57129,39.60423],[32.57223,39.59993],[32.57386,39.59702],[32.58307,39.5864],[32.58229,39.58021],[32.57941,39.57565],[32.57638,39.57459],[32.57418,39.57502],[32.56855,39.57152],[32.56621,39.56686],[32.56759,39.56347],[32.56237,39.55489],[32.56237,39.55224],[32.56058,39.55097],[32.5614,39.54567],[32.5603,39.54185],[32.56937,39.53126],[32.57336,39.53126],[32.57556,39.52829],[32.57377,39.5268],[32.57542,39.52479],[32.58188,39.525],[32.58463,39.52119],[32.58738,39.52203],[32.59356,39.52087],[32.59411,39.51684],[32.60373,39.51119],[32.6073,39.51268],[32.6095,39.50748],[32.60895,39.50398],[32.60662,39.50038],[32.60799,39.49921],[32.61225,39.49974],[32.61143,39.49691],[32.6172,39.49203],[32.61919,39.48736],[32.61424,39.4845],[32.61493,39.48227],[32.61301,39.47644],[32.61328,39.47113],[32.61067,39.46562],[32.61369,39.4654],[32.61424,39.46296],[32.61768,39.46031],[32.62221,39.45575],[32.62716,39.45724],[32.62798,39.45331],[32.63843,39.45097],[32.63994,39.45193],[32.64063,39.44938],[32.63815,39.44811],[32.64324,39.44503],[32.6475,39.44684],[32.64599,39.448],[32.6475,39.45044],[32.65327,39.45034],[32.65629,39.45426],[32.66976,39.45448],[32.67114,39.45724],[32.67594,39.45989],[32.68158,39.45904],[32.69269,39.46536],[32.69931,39.46626],[32.69678,39.46912],[32.69853,39.47182],[32.70418,39.4728],[32.70389,39.47573],[32.71704,39.48032],[32.72288,39.48543],[32.72122,39.48821],[32.72434,39.49024],[32.72575,39.48966],[32.73798,39.48942],[32.74197,39.48612],[32.74587,39.48391],[32.74698,39.48218],[32.7493,39.48225],[32.7517,39.48039],[32.74964,39.4745],[32.7499,39.47211],[32.75273,39.47132],[32.74956,39.46973],[32.74956,39.46814],[32.75067,39.46714],[32.75325,39.46893],[32.75883,39.46516],[32.75917,39.46363],[32.762,39.46323],[32.76149,39.46138],[32.7626,39.45913],[32.76278,39.45674],[32.76501,39.45455],[32.76441,39.45157],[32.76518,39.44647],[32.76775,39.44673],[32.77677,39.43308],[32.779,39.42718],[32.78071,39.42413],[32.77986,39.42187],[32.77725,39.41854],[32.77788,39.41466],[32.77917,39.41213],[32.7784,39.4116],[32.77865,39.40768],[32.77951,39.40669],[32.77402,39.40145],[32.77531,39.40025],[32.77574,39.39767],[32.77531,39.39601],[32.77488,39.3975],[32.77385,39.39332],[32.77046,39.39389],[32.76977,39.39299],[32.77136,39.39021],[32.76449,39.38513],[32.76209,39.38513],[32.76106,39.38235],[32.76724,39.37345],[32.76981,39.37054],[32.7693,39.36748],[32.7729,39.36682],[32.77496,39.36297],[32.77531,39.36071],[32.78183,39.35647],[32.78063,39.35355],[32.78389,39.35142],[32.79402,39.34638],[32.79848,39.34319],[32.79488,39.34133],[32.79024,39.34094],[32.7935,39.33775],[32.7911,39.33377],[32.78114,39.32208],[32.77891,39.31876],[32.77874,39.31186],[32.77754,39.30482],[32.78149,39.30548],[32.82364,39.26445],[32.82404,39.26363],[32.82667,39.26226],[32.83401,39.25699],[32.83523,39.25873],[32.83864,39.25897],[32.84399,39.26231],[32.84982,39.26124],[32.8528,39.26124],[32.8596,39.26266],[32.8621,39.26086],[32.86265,39.25819],[32.86702,39.25486],[32.8718,39.25388],[32.87351,39.25725],[32.87955,39.26162],[32.88106,39.26325],[32.88179,39.26412],[32.88116,39.26486],[32.88196,39.26581],[32.89162,39.27304],[32.90021,39.27076],[32.90333,39.26219],[32.90239,39.25842],[32.90567,39.2574],[32.90538,39.25693],[32.90647,39.2563],[32.90592,39.256],[32.90617,39.25499],[32.90525,39.25438],[32.90533,39.25399],[32.91241,39.24822],[32.90834,39.24363],[32.90655,39.2433],[32.90681,39.24265],[32.90618,39.24058],[32.90183,39.23256],[32.90279,39.23228],[32.90334,39.23078],[32.90469,39.2304],[32.90564,39.22897],[32.9087,39.22863],[32.90847,39.22811],[32.91113,39.22898],[32.91101,39.23004],[32.91546,39.23179],[32.91798,39.23355],[32.91766,39.23603],[32.91818,39.23574],[32.91832,39.23622],[32.9174,39.2365],[32.91701,39.23733],[32.91729,39.23793],[32.91796,39.23793],[32.91842,39.23873],[32.91776,39.23895],[32.91961,39.2409],[32.91987,39.24168],[32.91944,39.24247],[32.92049,39.24288],[32.91923,39.24336],[32.9202,39.2442],[32.92062,39.2455],[32.92479,39.24651],[32.92826,39.24611],[32.92727,39.2476],[32.92798,39.24773],[32.9277,39.24865],[32.92936,39.24858],[32.92957,39.25001],[32.93045,39.24995],[32.93004,39.25115],[32.93077,39.25144],[32.92964,39.25336],[32.93024,39.25347],[32.93069,39.25531],[32.93555,39.25928],[32.93609,39.2591],[32.93672,39.25956],[32.93635,39.25986],[32.93798,39.26103],[32.94347,39.26961],[32.94563,39.2705],[32.9478,39.27212],[32.95172,39.2772],[32.95208,39.27891],[32.95003,39.28182],[32.95145,39.28309],[32.95201,39.28255],[32.95405,39.28332],[32.95415,39.2841],[32.95499,39.28474],[32.95586,39.28426],[32.95701,39.28532],[32.95976,39.28603],[32.96108,39.28517],[32.96306,39.28581],[32.96364,39.28474],[32.96536,39.28666],[32.96678,39.2862],[32.96766,39.28761],[32.96728,39.28786],[32.96849,39.28809],[32.96953,39.28973],[32.96922,39.28989],[32.97021,39.29039],[32.97193,39.29015],[32.97264,39.29095],[32.9742,39.29015],[32.97503,39.29082],[32.97613,39.29294],[32.97841,39.29138],[32.98176,39.2901],[32.98911,39.29625],[32.99332,39.2991],[32.99409,39.30223],[32.99392,39.30475],[32.99117,39.30847],[32.98662,39.31803],[32.99297,39.32885],[32.99083,39.33177],[32.98834,39.3329],[32.98276,39.33875],[32.97598,39.34479],[32.96602,39.35222],[32.963,39.3539],[32.96124,39.35335],[32.9617,39.35058],[32.95913,39.35033],[32.95807,39.35305],[32.95724,39.35302],[32.95707,39.35367],[32.94841,39.35259],[32.94894,39.35094],[32.94703,39.35065],[32.94717,39.34748],[32.94581,39.34495],[32.93889,39.34173],[32.93808,39.3406],[32.93488,39.33852],[32.93049,39.33695],[32.9256,39.33677],[32.92355,39.33593],[32.92345,39.33546],[32.92181,39.33573],[32.92096,39.33474],[32.9187,39.3344],[32.91835,39.33523],[32.90829,39.33414],[32.90129,39.33425],[32.89889,39.33548],[32.8917,39.33786],[32.88845,39.34201],[32.8856,39.34691],[32.87942,39.35053],[32.88549,39.3539],[32.88423,39.3574],[32.88414,39.36012],[32.88766,39.36091],[32.89689,39.36596],[32.9,39.36659],[32.90163,39.36623],[32.90311,39.36722],[32.90617,39.36825],[32.9128,39.36723],[32.91591,39.36728],[32.91651,39.36685],[32.92401,39.36737],[32.92997,39.36284],[32.93126,39.36994],[32.93246,39.37047],[32.93427,39.37332],[32.93452,39.37936],[32.93521,39.38102],[32.93838,39.38434],[32.93933,39.38639],[32.93727,39.39104],[32.93856,39.39389],[32.93804,39.39628],[32.93984,39.39773],[32.9401,39.39992],[32.94139,39.40304],[32.94405,39.40569],[32.94517,39.41153],[32.94954,39.41438],[32.9498,39.41849],[32.95238,39.41829],[32.95743,39.42114],[32.96164,39.42017],[32.96621,39.41992],[32.97222,39.42076],[32.97984,39.42293],[32.98353,39.42439],[32.99429,39.43104],[33.0019,39.43652],[33.00265,39.4379],[33.00086,39.44112],[32.99713,39.43967],[32.99288,39.43614],[32.9908,39.43773],[32.9914,39.43828],[32.98653,39.44104],[32.98483,39.44273],[32.98405,39.44455],[32.9839,39.44726],[32.97953,39.44813],[32.97586,39.44824],[32.97583,39.44913],[32.96834,39.45018],[32.96748,39.45495],[32.96482,39.45594],[32.96096,39.45396],[32.9583,39.4517],[32.9516,39.45111],[32.94336,39.4529],[32.93778,39.45508],[32.9286,39.45389],[32.92697,39.45661],[32.92139,39.46019],[32.92019,39.46257],[32.91676,39.46297],[32.91126,39.46496],[32.90264,39.47137],[32.90715,39.47547],[32.90913,39.4806],[32.91325,39.48237],[32.91325,39.48628],[32.91935,39.49808],[32.93083,39.49993],[32.92654,39.50119],[32.92508,39.50245],[32.9268,39.50821],[32.93032,39.51],[32.92954,39.51596],[32.92637,39.5194],[32.92603,39.52033],[32.92697,39.52126],[32.92628,39.52318],[32.92431,39.5247],[32.92422,39.52622],[32.9274,39.52649],[32.9274,39.53],[32.92869,39.53178],[32.93083,39.53198],[32.93375,39.53337],[32.93504,39.53695],[32.93332,39.53959],[32.93787,39.54006],[32.93916,39.54343],[32.93899,39.54509],[32.93735,39.54721],[32.94087,39.5486],[32.94027,39.55416],[32.94388,39.55488],[32.9516,39.55535],[32.95735,39.5531],[32.96199,39.55237],[32.96139,39.55396],[32.96216,39.55607],[32.95753,39.55885],[32.95607,39.56157],[32.96302,39.55733],[32.96508,39.55521],[32.96748,39.55495],[32.96971,39.55303],[32.97495,39.55336],[32.97546,39.55508],[32.97873,39.55455],[32.9825,39.5568],[32.98465,39.55621],[32.99091,39.55621],[32.99108,39.55806],[32.99323,39.55779],[32.99546,39.55998],[32.99546,39.5611],[32.99666,39.56177],[32.99684,39.56415],[32.99958,39.56362],[33.0007,39.56825],[32.99975,39.57143],[33.00164,39.57202],[33.00164,39.57334],[33.00825,39.57837],[33.01211,39.58003],[33.01271,39.5836],[33.01563,39.58863],[33.01881,39.58915],[33.01829,39.59458],[33.0237,39.59617],[33.0255,39.59868],[33.02773,39.59908],[33.03057,39.60086],[33.03306,39.60463],[33.02593,39.60767],[33.02224,39.61005],[33.02147,39.61362],[33.02293,39.61521],[33.01932,39.61977],[33.01864,39.62876],[33.01194,39.63075],[33.01289,39.63636],[33.01486,39.63881],[33.01177,39.63941],[33.01323,39.64112],[33.00808,39.64225],[33.00662,39.64357],[33.00619,39.64529],[33.00739,39.64707],[33.00774,39.64945],[33.00962,39.64972],[33.01246,39.65216],[33.00782,39.65262],[33.00224,39.65051],[33.00001,39.6513],[32.99718,39.65335],[32.99417,39.65414],[32.99417,39.6554],[32.99709,39.65698],[32.991,39.65923],[32.98825,39.65778],[32.98679,39.65857],[32.98576,39.66161],[32.98293,39.66439],[32.97976,39.66518],[32.97358,39.67139],[32.96903,39.67482],[32.96988,39.67687],[32.96817,39.67747],[32.96508,39.67595],[32.96491,39.67773],[32.95847,39.68037],[32.95529,39.68044],[32.94731,39.67866],[32.93632,39.6774],[32.93135,39.6772],[32.92603,39.67786],[32.92216,39.67489],[32.91907,39.67436],[32.91624,39.67231],[32.91375,39.67159],[32.91075,39.66848],[32.9086,39.66855],[32.90534,39.66643],[32.90294,39.66346],[32.90319,39.66095],[32.89899,39.6593],[32.89727,39.65732],[32.89401,39.65639],[32.89144,39.6511],[32.8856,39.64271],[32.8862,39.6406],[32.88285,39.63934],[32.87899,39.63491],[32.8771,39.63518],[32.87228,39.63156],[32.8653,39.62911],[32.86351,39.62962],[32.85695,39.63327],[32.8557,39.63319],[32.85572,39.63274],[32.85371,39.63285],[32.85379,39.6339],[32.85023,39.63421],[32.85012,39.63379],[32.84938,39.63376],[32.84868,39.63445],[32.85002,39.63495],[32.84901,39.63581],[32.84604,39.63426],[32.8453,39.6356],[32.84061,39.6353],[32.84042,39.63587],[32.84174,39.63962],[32.84116,39.64481],[32.84202,39.64714],[32.84185,39.65262],[32.8425,39.65724],[32.84205,39.66021],[32.84294,39.66044],[32.84288,39.66344],[32.8439,39.66331],[32.84612,39.66889],[32.84805,39.66742],[32.85057,39.66754],[32.85119,39.66787],[32.85088,39.66813],[32.85188,39.67008],[32.85495,39.66905],[32.85827,39.66912],[32.8582,39.66949],[32.85897,39.66962],[32.85889,39.67012],[32.86182,39.67027],[32.86169,39.67195],[32.8627,39.67201],[32.86247,39.6726],[32.85865,39.6734],[32.85749,39.67418],[32.85683,39.67533],[32.85464,39.67612],[32.85603,39.67906],[32.85468,39.68033],[32.8542,39.68028],[32.85239,39.67798],[32.85196,39.67809],[32.85181,39.6773],[32.85034,39.67757],[32.85049,39.67829],[32.84849,39.67845],[32.85046,39.6806],[32.8516,39.68296],[32.85132,39.68432],[32.85074,39.68431],[32.85083,39.68535],[32.85121,39.68538],[32.85127,39.68848],[32.84927,39.69244],[32.84963,39.69397],[32.85075,39.69547],[32.85046,39.69645],[32.84886,39.69655],[32.84683,39.6991],[32.84748,39.69936],[32.84668,39.70029],[32.84786,39.70024],[32.84774,39.70231],[32.84594,39.70477],[32.84637,39.70504],[32.84542,39.70634],[32.84585,39.70678],[32.84493,39.708],[32.84542,39.70811],[32.84315,39.71097],[32.84568,39.70929],[32.84637,39.70829],[32.84715,39.70851],[32.84537,39.71041],[32.84424,39.71082],[32.84674,39.71175],[32.84989,39.71209],[32.8495,39.71261],[32.85191,39.71311],[32.85239,39.71368],[32.85597,39.71039],[32.85524,39.70886],[32.86122,39.7084],[32.86269,39.70869],[32.8613,39.71338],[32.86153,39.71397],[32.86816,39.71808],[32.87305,39.72175],[32.87605,39.72297],[32.88067,39.72359],[32.87952,39.72502],[32.87984,39.72693],[32.89256,39.72672],[32.89608,39.72883],[32.89733,39.73207],[32.89771,39.73201],[32.89808,39.73371],[32.89756,39.73484],[32.89981,39.73851],[32.90135,39.73811],[32.90639,39.73912],[32.91008,39.74386],[32.91748,39.74699],[32.92049,39.75382],[32.92255,39.76086],[32.93018,39.76157],[32.93083,39.76441],[32.93787,39.77054],[32.93368,39.775],[32.92616,39.77796],[32.92584,39.77982],[32.93039,39.78153],[32.92625,39.78202],[32.92573,39.78297],[32.92679,39.785],[32.92616,39.78523],[32.92852,39.78652],[32.9286,39.78844],[32.92792,39.78972],[32.92893,39.79029],[32.92877,39.79104],[32.92102,39.78914],[32.9194,39.78927],[32.91832,39.7896],[32.91919,39.79073],[32.91837,39.79158],[32.91622,39.79144],[32.91719,39.7929],[32.91651,39.79328],[32.91552,39.79333],[32.91387,39.79247],[32.91306,39.79315],[32.91057,39.79272],[32.90844,39.79297],[32.90658,39.79389],[32.90546,39.79381],[32.90346,39.79664],[32.90461,39.79754],[32.90185,39.7993],[32.90065,39.79926],[32.89609,39.80208],[32.89358,39.8018],[32.89355,39.80273],[32.89078,39.80385],[32.88822,39.80588],[32.88747,39.80753],[32.88663,39.80827],[32.88564,39.80827],[32.88552,39.80947],[32.88498,39.80976],[32.88312,39.81014],[32.88055,39.8093],[32.87797,39.81008],[32.8664,39.81806],[32.86229,39.82164],[32.86052,39.82235],[32.85958,39.82243],[32.86046,39.82208],[32.85957,39.82086],[32.85767,39.8196],[32.85437,39.81909],[32.85454,39.81475],[32.85772,39.81183],[32.85725,39.81113],[32.85878,39.80905],[32.85638,39.80775],[32.85067,39.81117],[32.84339,39.82023],[32.84062,39.82002],[32.83916,39.82108],[32.83905,39.82393],[32.83817,39.82527],[32.83587,39.82718],[32.83451,39.82742],[32.83126,39.8296],[32.83056,39.82942],[32.82838,39.83046],[32.82756,39.82951],[32.8317,39.82688],[32.83245,39.82563],[32.83186,39.82426],[32.8294,39.8238],[32.82346,39.82469],[32.82097,39.82317],[32.81942,39.82126],[32.82054,39.81592],[32.81741,39.81402],[32.81341,39.81423],[32.81065,39.81386],[32.80223,39.81055],[32.79699,39.81822],[32.79583,39.82669],[32.79608,39.82806],[32.79383,39.82844],[32.79379,39.8293],[32.79034,39.83101],[32.7899,39.83197],[32.78794,39.83302],[32.78704,39.83407],[32.78596,39.83441],[32.78174,39.83387],[32.77704,39.83817],[32.77499,39.83894],[32.77005,39.83399],[32.76546,39.83211],[32.76498,39.83615],[32.76269,39.83646],[32.7442,39.82931],[32.7392,39.82859],[32.73392,39.8295],[32.73357,39.8308],[32.73146,39.83296],[32.72956,39.83395],[32.71834,39.83381],[32.71092,39.83168],[32.71442,39.82933],[32.71416,39.82639],[32.71388,39.82575],[32.71273,39.82564],[32.71154,39.82483],[32.70908,39.82449],[32.70961,39.82386],[32.70709,39.82274],[32.7018,39.82326],[32.69407,39.82683],[32.68739,39.82161],[32.68495,39.8239],[32.68269,39.82366],[32.68311,39.82314],[32.68194,39.82256],[32.68194,39.8214],[32.68069,39.82139],[32.68083,39.82028],[32.68001,39.82023],[32.68033,39.81925],[32.67832,39.81917],[32.67833,39.8127],[32.67678,39.8078],[32.67429,39.80806],[32.6714,39.79999],[32.6685,39.79796],[32.66972,39.79675],[32.6655,39.78741],[32.66023,39.78596],[32.6587,39.78489],[32.65799,39.78349],[32.65558,39.78181],[32.64961,39.78019],[32.64828,39.78077],[32.64789,39.77957],[32.6419,39.77629],[32.64006,39.77396],[32.63882,39.77376],[32.6364,39.76963],[32.63384,39.76794],[32.63155,39.76932],[32.63108,39.76895],[32.63047,39.7682],[32.63101,39.76686],[32.63055,39.76517],[32.62932,39.76476],[32.62928,39.76408],[32.62643,39.765],[32.62525,39.76393],[32.62053,39.76391],[32.62007,39.76141],[32.62036,39.76106],[32.61967,39.75917],[32.61891,39.75904],[32.61822,39.75774],[32.61915,39.75756],[32.61941,39.75703],[32.61855,39.7556],[32.61916,39.75431],[32.61956,39.75034],[32.62042,39.74971],[32.62215,39.74951],[32.62267,39.74846],[32.62202,39.74183],[32.6214,39.74137],[32.62267,39.74037],[32.62346,39.73846],[32.62246,39.73786],[32.62099,39.73512],[32.61886,39.73331],[32.61333,39.73071],[32.60999,39.73024],[32.60456,39.73068],[32.60451,39.73207],[32.60204,39.7319],[32.60233,39.73349],[32.60138,39.73395],[32.59491,39.73079],[32.59428,39.73119],[32.59308,39.73085],[32.59209,39.73204],[32.59133,39.73119],[32.58897,39.73164],[32.58884,39.73221],[32.58418,39.73329],[32.58289,39.73459],[32.57326,39.73181],[32.57262,39.72813],[32.57554,39.7265],[32.57451,39.72439],[32.57708,39.72318],[32.57699,39.72155],[32.57359,39.71864],[32.57103,39.71419],[32.57157,39.713],[32.57428,39.71334],[32.57489,39.71078],[32.57338,39.70909],[32.57296,39.70698],[32.57049,39.70709],[32.5638,39.69868],[32.56334,39.69411],[32.56666,39.69318],[32.56487,39.69018],[32.5693,39.68837],[32.56765,39.67874],[32.57144,39.67668],[32.56743,39.67366],[32.56859,39.6712],[32.56805,39.6691],[32.56883,39.66748],[32.56299,39.66521],[32.56416,39.66391],[32.55961,39.66293],[32.55569,39.66609],[32.55166,39.66794],[32.54799,39.66795],[32.54496,39.66547],[32.54575,39.66333],[32.54103,39.66391],[32.53859,39.65917],[32.54023,39.65841],[32.538,39.65385],[32.53605,39.65324],[32.53576,39.65461],[32.53407,39.65518],[32.53276,39.65397],[32.53027,39.65447],[32.52648,39.65366],[32.52578,39.65446],[32.52358,39.65333],[32.52246,39.65381],[32.51927,39.65053],[32.51766,39.65069],[32.51698,39.64939],[32.51535,39.64978],[32.51578,39.64744],[32.51288,39.64727],[32.51166,39.64588],[32.50691,39.64311],[32.50715,39.63172],[32.50382,39.62533],[32.50391,39.62394],[32.49928,39.62242]]]}},{"type":"Feature","properties":{"id":"yenimahalle","ad":"Yenimahalle","osm":"relation/1812356"},"geometry":{"type":"Polygon","coordinates":[[[32.56433,40.01441],[32.57086,40.01084],[32.57337,40.00742],[32.57818,40.00758],[32.57814,40.00854],[32.5807,40.00771],[32.58258,40.00612],[32.58433,40.00362],[32.58641,40.00258],[32.58609,40.0022],[32.58229,40.00422],[32.58098,40.00108],[32.57925,39.99997],[32.57892,39.99881],[32.57921,39.99801],[32.58196,39.99735],[32.58853,39.99712],[32.58845,39.9964],[32.5941,39.99646],[32.59894,39.99896],[32.60251,39.99615],[32.60296,39.99686],[32.60401,39.99656],[32.60715,39.99983],[32.60685,40.00194],[32.60848,40.00225],[32.60825,40.00344],[32.611,40.00402],[32.61087,40.00443],[32.61228,40.00477],[32.61174,40.00564],[32.62136,40.00438],[32.62163,40.00374],[32.62351,40.00443],[32.62427,40.00351],[32.62588,40.00443],[32.62791,40.00274],[32.63027,40.00431],[32.63099,40.00373],[32.63748,40.00375],[32.63771,40.00414],[32.63925,40.00361],[32.64612,40.0038],[32.6536,40.00338],[32.65366,40.00297],[32.65634,40.00199],[32.65548,39.99124],[32.66007,39.97509],[32.66151,39.97271],[32.66378,39.97075],[32.68694,39.95951],[32.70571,39.94784],[32.71064,39.94596],[32.71573,39.94533],[32.76228,39.94497],[32.76353,39.9398],[32.76169,39.93304],[32.76021,39.93158],[32.75761,39.93145],[32.75752,39.93086],[32.76415,39.9306],[32.77424,39.93234],[32.78464,39.93506],[32.79158,39.93927],[32.79556,39.94052],[32.79728,39.93647],[32.79371,39.9333],[32.79333,39.93213],[32.79365,39.93078],[32.79754,39.92633],[32.80212,39.91537],[32.80278,39.91551],[32.80498,39.91244],[32.80729,39.911],[32.81449,39.91272],[32.81395,39.91948],[32.81444,39.92313],[32.81602,39.92675],[32.81935,39.93147],[32.82333,39.93274],[32.8279,39.93246],[32.8374,39.93503],[32.84058,39.93888],[32.83074,39.94595],[32.83539,39.95114],[32.83191,39.95367],[32.83553,39.95546],[32.83919,39.95584],[32.84212,39.95917],[32.84706,39.96048],[32.835,39.97012],[32.83215,39.96885],[32.81887,39.96892],[32.81886,39.97163],[32.81623,39.97142],[32.81482,39.97184],[32.8145,39.97281],[32.81361,39.97354],[32.81371,39.97426],[32.81297,39.97425],[32.81263,39.97582],[32.81117,39.97701],[32.81115,39.97973],[32.81201,39.98038],[32.812,39.98214],[32.81243,39.98271],[32.81143,39.9856],[32.81022,39.98537],[32.80969,39.98615],[32.80823,39.98652],[32.80671,39.98837],[32.80262,39.9888],[32.80034,39.99102],[32.79956,39.99115],[32.80022,39.99231],[32.79978,39.99426],[32.7989,39.99584],[32.79648,39.99818],[32.79689,39.99988],[32.79665,40.00121],[32.79752,40.00419],[32.79655,40.00786],[32.79657,40.01009],[32.79414,40.01186],[32.79035,40.01604],[32.79727,40.02549],[32.80006,40.02784],[32.80145,40.02989],[32.80129,40.03275],[32.80326,40.03535],[32.80302,40.03594],[32.80659,40.03888],[32.80725,40.04215],[32.80697,40.04374],[32.80476,40.04363],[32.80626,40.04776],[32.80693,40.04776],[32.80611,40.04852],[32.80669,40.049],[32.80695,40.05046],[32.80781,40.05098],[32.80681,40.05165],[32.80731,40.05284],[32.80609,40.05657],[32.80588,40.06227],[32.80328,40.06757],[32.8,40.06856],[32.80207,40.07185],[32.79441,40.07795],[32.78745,40.08264],[32.78548,40.08197],[32.78567,40.08564],[32.78816,40.08906],[32.78783,40.09287],[32.78102,40.09633],[32.781,40.09961],[32.77915,40.10015],[32.77857,40.10169],[32.77331,40.10371],[32.76774,40.10251],[32.76463,40.10358],[32.76432,40.10264],[32.76333,40.10229],[32.75998,40.10497],[32.75861,40.1054],[32.75698,40.10531],[32.75548,40.10608],[32.75325,40.10539],[32.75092,40.10616],[32.75054,40.1054],[32.74746,40.10582],[32.74651,40.10166],[32.74396,40.09582],[32.74252,40.09513],[32.7343,40.09466],[32.73046,40.09638],[32.72871,40.09633],[32.72843,40.0939],[32.72723,40.09319],[32.7264,40.09432],[32.71911,40.08908],[32.71034,40.08639],[32.70645,40.08576],[32.70387,40.08346],[32.70222,40.0832],[32.70096,40.08052],[32.69438,40.07574],[32.69279,40.07351],[32.68791,40.06957],[32.68621,40.06894],[32.68577,40.06588],[32.68336,40.0655],[32.67821,40.06193],[32.67081,40.05904],[32.66845,40.0592],[32.66549,40.05857],[32.66088,40.05278],[32.65595,40.05052],[32.65441,40.04833],[32.65628,40.0459],[32.65364,40.04498],[32.65353,40.04288],[32.65249,40.04174],[32.65353,40.03742],[32.65529,40.03377],[32.64926,40.03452],[32.6418,40.0336],[32.63818,40.03242],[32.63473,40.03331],[32.63067,40.02499],[32.62689,40.0268],[32.62244,40.02726],[32.61724,40.03116],[32.60989,40.03414],[32.6049,40.03528],[32.59881,40.03494],[32.59689,40.0365],[32.58745,40.03862],[32.58882,40.04164],[32.58889,40.04569],[32.58546,40.05347],[32.58542,40.05504],[32.58338,40.05569],[32.57696,40.04819],[32.5736,40.04528],[32.57227,40.04237],[32.57408,40.03764],[32.57498,40.03098],[32.57472,40.02834],[32.5739,40.02671],[32.56433,40.01441]]]}},{"type":"Feature","properties":{"id":"etimesgut","ad":"Etimesgut","osm":"relation/1812354"},"geometry":{"type":"Polygon","coordinates":[[[32.48078,39.77675],[32.48166,39.76888],[32.48357,39.7669],[32.48431,39.76485],[32.48873,39.75728],[32.49533,39.75149],[32.49874,39.75197],[32.50779,39.75704],[32.51643,39.75917],[32.52024,39.75755],[32.52206,39.76245],[32.52722,39.76237],[32.5308,39.76012],[32.53192,39.76111],[32.53554,39.75665],[32.53693,39.75611],[32.53773,39.754],[32.55104,39.7515],[32.55194,39.74994],[32.55646,39.74962],[32.55697,39.75177],[32.56163,39.75287],[32.56307,39.75527],[32.5675,39.75184],[32.56607,39.74973],[32.56755,39.74831],[32.57097,39.74879],[32.57353,39.73941],[32.5721,39.73912],[32.57109,39.73729],[32.57279,39.73721],[32.57605,39.73262],[32.58289,39.73459],[32.58418,39.73329],[32.58884,39.73221],[32.58897,39.73164],[32.59133,39.73119],[32.59209,39.73204],[32.59308,39.73085],[32.5959,39.73109],[32.59567,39.73147],[32.60138,39.73395],[32.60233,39.73349],[32.60204,39.7319],[32.60451,39.73207],[32.60456,39.73068],[32.60753,39.73026],[32.61333,39.73071],[32.61694,39.73217],[32.62099,39.73512],[32.62246,39.73786],[32.62346,39.73846],[32.62267,39.74037],[32.6214,39.74137],[32.62202,39.74183],[32.62267,39.74846],[32.62215,39.74951],[32.62042,39.74971],[32.61956,39.75034],[32.61916,39.75431],[32.61855,39.7556],[32.61941,39.75703],[32.61915,39.75756],[32.61822,39.75774],[32.61891,39.75904],[32.61967,39.75917],[32.62036,39.76106],[32.62007,39.76141],[32.62053,39.76391],[32.62525,39.76393],[32.62643,39.765],[32.62928,39.76408],[32.62932,39.76476],[32.63055,39.76517],[32.63101,39.76686],[32.63047,39.7682],[32.63108,39.76895],[32.63155,39.76932],[32.63384,39.76794],[32.6364,39.76963],[32.63882,39.77376],[32.64006,39.77396],[32.6419,39.77629],[32.64789,39.77957],[32.64828,39.78077],[32.64961,39.78019],[32.65558,39.78181],[32.65799,39.78349],[32.6587,39.78489],[32.66023,39.78596],[32.66374,39.78698],[32.66213,39.78958],[32.65938,39.79265],[32.65555,39.79549],[32.64827,39.79945],[32.64603,39.80165],[32.64462,39.80403],[32.64392,39.80768],[32.64556,39.8169],[32.64617,39.82651],[32.64569,39.83412],[32.64433,39.83805],[32.64232,39.84073],[32.63958,39.84299],[32.62949,39.8485],[32.62652,39.85224],[32.63077,39.85586],[32.63434,39.85686],[32.6342,39.85738],[32.63548,39.85786],[32.63557,39.86033],[32.63637,39.86023],[32.63664,39.86234],[32.63858,39.86473],[32.63628,39.86603],[32.67022,39.88943],[32.69509,39.90441],[32.69938,39.90522],[32.734,39.90659],[32.73444,39.90831],[32.73271,39.91095],[32.73571,39.91192],[32.74444,39.91255],[32.75362,39.91501],[32.76927,39.91688],[32.77549,39.91648],[32.78177,39.91863],[32.78872,39.918],[32.79505,39.92159],[32.79925,39.92249],[32.79754,39.92633],[32.79338,39.93154],[32.79421,39.93397],[32.79728,39.93647],[32.79556,39.94052],[32.79158,39.93927],[32.78391,39.93482],[32.77059,39.93152],[32.76079,39.93051],[32.75752,39.93086],[32.75761,39.93145],[32.76021,39.93158],[32.76169,39.93304],[32.76353,39.9398],[32.76228,39.94497],[32.71573,39.94533],[32.70878,39.94649],[32.70571,39.94784],[32.68877,39.95852],[32.66479,39.97016],[32.66151,39.97271],[32.66007,39.97509],[32.65558,39.99056],[32.65634,40.00199],[32.65366,40.00297],[32.6536,40.00338],[32.64612,40.0038],[32.63925,40.00361],[32.63771,40.00414],[32.63748,40.00375],[32.63099,40.00373],[32.63027,40.00431],[32.62791,40.00274],[32.62588,40.00443],[32.62427,40.00351],[32.62351,40.00443],[32.62163,40.00374],[32.62136,40.00438],[32.61174,40.00564],[32.61228,40.00477],[32.61087,40.00443],[32.611,40.00402],[32.60825,40.00344],[32.60848,40.00225],[32.60685,40.00194],[32.60715,39.99983],[32.60401,39.99656],[32.60296,39.99686],[32.60129,39.99519],[32.60083,39.99089],[32.59751,39.98891],[32.59856,39.98787],[32.60251,39.98643],[32.60185,39.98275],[32.60289,39.97775],[32.60191,39.97256],[32.60071,39.97292],[32.60041,39.97031],[32.60315,39.96606],[32.60379,39.96052],[32.60547,39.96018],[32.60472,39.95765],[32.60425,39.95191],[32.60521,39.94854],[32.59948,39.94929],[32.59911,39.94698],[32.59692,39.94609],[32.59945,39.94231],[32.60233,39.93975],[32.60131,39.9399],[32.59792,39.93699],[32.59562,39.93293],[32.59599,39.93109],[32.59709,39.93073],[32.59671,39.92976],[32.59555,39.93],[32.59529,39.92915],[32.59642,39.92851],[32.59696,39.9261],[32.59817,39.92471],[32.59763,39.92443],[32.59552,39.92561],[32.59483,39.92501],[32.59431,39.92313],[32.59429,39.91889],[32.59562,39.91846],[32.59627,39.91648],[32.595,39.91505],[32.59536,39.91478],[32.5948,39.91454],[32.59335,39.91158],[32.59541,39.90921],[32.59523,39.90538],[32.59785,39.90214],[32.59237,39.89232],[32.5897,39.88933],[32.58749,39.8816],[32.58424,39.875],[32.58005,39.87329],[32.57242,39.87112],[32.56892,39.86914],[32.56711,39.86876],[32.56455,39.8691],[32.5647,39.86735],[32.56592,39.86633],[32.56682,39.86457],[32.56815,39.85895],[32.56784,39.85636],[32.56388,39.85323],[32.56208,39.85297],[32.55542,39.85002],[32.54534,39.84677],[32.54319,39.84532],[32.53495,39.84921],[32.53114,39.84258],[32.5225,39.84567],[32.49965,39.83855],[32.49049,39.83411],[32.49399,39.83308],[32.50241,39.82869],[32.4983,39.82241],[32.49992,39.81175],[32.50382,39.80771],[32.49417,39.8029],[32.49166,39.80323],[32.48887,39.79512],[32.48466,39.78869],[32.48078,39.77675]]]}},{"type":"Feature","properties":{"id":"pursaklar","ad":"Pursaklar","osm":"relation/1811454"},"geometry":{"type":"Polygon","coordinates":[[[32.79731,40.11938],[32.79862,40.11728],[32.80365,40.11751],[32.80415,40.11603],[32.80283,40.1136],[32.80418,40.11201],[32.80585,40.11113],[32.80677,40.10973],[32.80934,40.10807],[32.80856,40.10801],[32.80864,40.10746],[32.80772,40.1076],[32.80775,40.10681],[32.80972,40.10658],[32.80968,40.10545],[32.81102,40.10405],[32.81325,40.10462],[32.81404,40.10213],[32.81397,40.10028],[32.81744,40.09824],[32.82163,40.09697],[32.82748,40.09741],[32.82796,40.09524],[32.82761,40.09365],[32.82799,40.09338],[32.82928,40.09406],[32.83622,40.09455],[32.8377,40.09535],[32.84041,40.09484],[32.84964,40.09812],[32.85245,40.09848],[32.85472,40.09793],[32.85597,40.09874],[32.86213,40.10028],[32.86519,40.10182],[32.86573,40.1011],[32.86805,40.10058],[32.86833,40.09803],[32.86756,40.09777],[32.86853,40.09665],[32.87075,40.09607],[32.87131,40.0948],[32.87402,40.09458],[32.87513,40.09204],[32.87714,40.09103],[32.87894,40.09166],[32.88026,40.09145],[32.88236,40.08434],[32.88026,40.07584],[32.88284,40.07373],[32.88498,40.07023],[32.8842,40.06896],[32.88277,40.06826],[32.88145,40.06687],[32.88153,40.06577],[32.88092,40.06434],[32.87986,40.06327],[32.88015,40.0625],[32.87801,40.06144],[32.87824,40.05982],[32.88863,40.06005],[32.88881,40.0596],[32.88992,40.05958],[32.88985,40.05807],[32.88828,40.05655],[32.88555,40.05584],[32.88502,40.05424],[32.88626,40.05305],[32.88637,40.05172],[32.88366,40.05078],[32.88381,40.04997],[32.88018,40.04947],[32.88049,40.04856],[32.87548,40.04774],[32.8755,40.04545],[32.87714,40.04378],[32.87651,40.04353],[32.87754,40.04251],[32.87619,40.04094],[32.87661,40.03668],[32.87321,40.03394],[32.87472,40.0305],[32.88208,40.02877],[32.88392,40.02643],[32.88429,40.02367],[32.88773,40.02123],[32.88933,40.02229],[32.88826,40.02379],[32.89282,40.02401],[32.89621,40.02286],[32.89637,40.02017],[32.89736,40.01731],[32.90854,40.01669],[32.91448,40.01563],[32.91339,40.01778],[32.91057,40.01844],[32.90805,40.02232],[32.90812,40.02394],[32.90896,40.02468],[32.91216,40.02466],[32.91218,40.02586],[32.91091,40.02622],[32.91048,40.02687],[32.91149,40.0284],[32.90902,40.03116],[32.91038,40.03327],[32.90957,40.03508],[32.9063,40.03718],[32.90777,40.03814],[32.90813,40.03923],[32.91216,40.04027],[32.91505,40.04207],[32.91623,40.04092],[32.91704,40.04124],[32.91671,40.04174],[32.9183,40.04196],[32.92144,40.04021],[32.92295,40.04165],[32.92055,40.04225],[32.92018,40.0428],[32.92595,40.04495],[32.92498,40.04638],[32.92656,40.04896],[32.92744,40.04932],[32.93182,40.04974],[32.93324,40.05051],[32.93724,40.05103],[32.9411,40.04931],[32.95083,40.05027],[32.95364,40.05002],[32.95876,40.0508],[32.96023,40.04457],[32.961,40.04395],[32.96279,40.04439],[32.96393,40.04414],[32.96612,40.0431],[32.9683,40.04019],[32.96958,40.04037],[32.96977,40.04189],[32.97123,40.04354],[32.97429,40.0443],[32.97639,40.04165],[32.97827,40.04275],[32.97882,40.04134],[32.98141,40.03992],[32.98473,40.0449],[32.98411,40.04636],[32.98536,40.04644],[32.98426,40.04731],[32.98436,40.04769],[32.98357,40.04772],[32.9837,40.04989],[32.98321,40.05003],[32.98606,40.05949],[32.98334,40.05977],[32.98344,40.0604],[32.98435,40.06105],[32.98515,40.06522],[32.98391,40.06539],[32.9865,40.07011],[32.98791,40.07597],[32.98264,40.07281],[32.97934,40.07239],[32.97663,40.07305],[32.97241,40.07639],[32.96614,40.07067],[32.96438,40.0716],[32.96314,40.07299],[32.95768,40.07288],[32.95408,40.07367],[32.9549,40.07509],[32.95429,40.07779],[32.95679,40.0793],[32.95743,40.0834],[32.96143,40.08346],[32.96274,40.08442],[32.9619,40.0851],[32.96265,40.08589],[32.96565,40.08712],[32.96546,40.08872],[32.96692,40.0912],[32.96708,40.09278],[32.96496,40.09432],[32.96355,40.09896],[32.95974,40.09803],[32.9583,40.0982],[32.95765,40.09708],[32.95469,40.09869],[32.9515,40.10218],[32.94958,40.10134],[32.9467,40.10276],[32.94472,40.10296],[32.94513,40.10357],[32.93921,40.10542],[32.93942,40.10637],[32.93765,40.10642],[32.93757,40.10738],[32.92948,40.10814],[32.92715,40.10877],[32.92655,40.10764],[32.92474,40.10896],[32.9238,40.1085],[32.92147,40.11198],[32.92379,40.11313],[32.92892,40.11303],[32.93049,40.11464],[32.93049,40.12068],[32.92998,40.12154],[32.92732,40.12072],[32.92605,40.11927],[32.92544,40.12227],[32.92193,40.12144],[32.92061,40.12297],[32.91965,40.12767],[32.91469,40.12742],[32.91388,40.12845],[32.9114,40.13004],[32.91296,40.13149],[32.91269,40.13382],[32.91152,40.13475],[32.91208,40.13562],[32.90812,40.13604],[32.91011,40.13725],[32.91,40.1389],[32.91252,40.13945],[32.91282,40.14071],[32.91232,40.14077],[32.91171,40.1422],[32.91224,40.1424],[32.91029,40.14573],[32.91235,40.14608],[32.91234,40.14702],[32.91357,40.14718],[32.91359,40.1476],[32.91295,40.14749],[32.91381,40.14842],[32.91298,40.14885],[32.91336,40.14927],[32.91218,40.15044],[32.91078,40.14947],[32.90957,40.1501],[32.90855,40.15111],[32.9092,40.15146],[32.90778,40.15214],[32.90922,40.15277],[32.90701,40.15501],[32.89629,40.16192],[32.89121,40.16584],[32.89081,40.16704],[32.88497,40.16841],[32.87803,40.17258],[32.87631,40.17542],[32.87591,40.17726],[32.87684,40.18144],[32.87809,40.18361],[32.8793,40.18458],[32.8788,40.18542],[32.87746,40.18616],[32.87622,40.18813],[32.87462,40.18905],[32.87428,40.19042],[32.87105,40.19183],[32.86857,40.19357],[32.86742,40.19542],[32.86662,40.19851],[32.86519,40.19717],[32.85809,40.1993],[32.85342,40.19834],[32.84409,40.20159],[32.83935,40.19743],[32.8391,40.1924],[32.83984,40.19171],[32.83994,40.1909],[32.83874,40.18706],[32.83844,40.18368],[32.83899,40.17971],[32.83875,40.17441],[32.84307,40.1695],[32.84223,40.16628],[32.83632,40.16571],[32.832,40.16165],[32.82479,40.16044],[32.82448,40.15995],[32.82316,40.15966],[32.82229,40.15858],[32.81938,40.15811],[32.81763,40.1565],[32.81601,40.15614],[32.81864,40.15385],[32.81989,40.15209],[32.82017,40.15014],[32.81901,40.1478],[32.81602,40.14846],[32.81392,40.14733],[32.81205,40.14526],[32.8119,40.14354],[32.81112,40.14294],[32.81208,40.14294],[32.80517,40.13345],[32.80607,40.13208],[32.80572,40.13115],[32.8051,40.13088],[32.80557,40.1302],[32.80523,40.13012],[32.80608,40.12788],[32.8073,40.12713],[32.80467,40.12569],[32.80416,40.12397],[32.80233,40.124],[32.80233,40.12279],[32.80121,40.1221],[32.80028,40.12257],[32.79834,40.12071],[32.79806,40.11971],[32.79731,40.11938]]]}},{"type":"Feature","properties":{"id":"cubuk","ad":"Çubuk","osm":"relation/1667201"},"geometry":{"type":"Polygon","coordinates":[[[32.80479,40.23682],[32.80758,40.23614],[32.80884,40.23503],[32.80852,40.23409],[32.8053,40.23284],[32.80739,40.23054],[32.80822,40.22854],[32.80774,40.22673],[32.81159,40.22369],[32.81377,40.22276],[32.81648,40.2195],[32.81793,40.21676],[32.81819,40.21556],[32.81685,40.21437],[32.81545,40.20962],[32.81668,40.20994],[32.81657,40.20845],[32.81726,40.20732],[32.81676,40.20704],[32.81817,40.20376],[32.8244,40.19951],[32.8253,40.19731],[32.82504,40.19478],[32.83935,40.19743],[32.84409,40.20159],[32.85342,40.19834],[32.85809,40.1993],[32.86519,40.19717],[32.86662,40.19851],[32.86742,40.19542],[32.86857,40.19357],[32.87105,40.19183],[32.87428,40.19042],[32.87462,40.18905],[32.87622,40.18813],[32.87746,40.18616],[32.8788,40.18542],[32.8793,40.18458],[32.87809,40.18361],[32.87684,40.18144],[32.87591,40.17726],[32.87631,40.17542],[32.87803,40.17258],[32.88497,40.16841],[32.89081,40.16704],[32.89121,40.16584],[32.89629,40.16192],[32.90701,40.15501],[32.90922,40.15277],[32.90778,40.15214],[32.9092,40.15146],[32.90855,40.15111],[32.90957,40.1501],[32.91078,40.14947],[32.91218,40.15044],[32.91336,40.14927],[32.91298,40.14885],[32.91381,40.14842],[32.91295,40.14749],[32.91359,40.1476],[32.91357,40.14718],[32.91234,40.14702],[32.91235,40.14608],[32.91029,40.14573],[32.91224,40.1424],[32.91171,40.1422],[32.91232,40.14077],[32.91282,40.14071],[32.91252,40.13945],[32.91,40.1389],[32.91011,40.13725],[32.90812,40.13604],[32.91208,40.13562],[32.91152,40.13475],[32.91269,40.13382],[32.91296,40.13149],[32.9114,40.13004],[32.91388,40.12845],[32.91469,40.12742],[32.91965,40.12767],[32.92061,40.12297],[32.92193,40.12144],[32.92544,40.12227],[32.92605,40.11927],[32.92732,40.12072],[32.92998,40.12154],[32.93049,40.12068],[32.93049,40.11464],[32.92892,40.11303],[32.92379,40.11313],[32.92147,40.11198],[32.9238,40.1085],[32.92474,40.10896],[32.92655,40.10764],[32.92715,40.10877],[32.92948,40.10814],[32.93757,40.10738],[32.93765,40.10642],[32.93942,40.10637],[32.93921,40.10542],[32.94513,40.10357],[32.94472,40.10296],[32.9467,40.10276],[32.94958,40.10134],[32.9515,40.10218],[32.95469,40.09869],[32.95765,40.09708],[32.9583,40.0982],[32.95974,40.09803],[32.96355,40.09896],[32.96496,40.09432],[32.96708,40.09278],[32.96922,40.09384],[32.97017,40.09502],[32.9703,40.09698],[32.97251,40.09793],[32.97485,40.09782],[32.97609,40.10209],[32.97599,40.10334],[32.9769,40.10397],[32.97742,40.10565],[32.97855,40.10546],[32.97877,40.10625],[32.97999,40.10684],[32.97937,40.10785],[32.98244,40.10957],[32.9827,40.11094],[32.98411,40.11107],[32.98616,40.10996],[32.98744,40.11131],[32.98846,40.11119],[32.98971,40.11224],[32.98989,40.11327],[32.98811,40.11433],[32.99191,40.11414],[32.99448,40.11488],[32.99928,40.11733],[33.00189,40.11655],[33.00137,40.11804],[33.0038,40.11813],[33.00468,40.12067],[33.00997,40.1207],[33.01288,40.1269],[33.01394,40.128],[33.01461,40.13003],[33.01746,40.13451],[33.01988,40.13953],[33.01647,40.14406],[33.01991,40.14624],[33.03154,40.15104],[33.03616,40.15588],[33.0357,40.15862],[33.03793,40.15899],[33.04016,40.15809],[33.04189,40.1556],[33.04272,40.15249],[33.04527,40.15075],[33.04608,40.14894],[33.04755,40.14791],[33.04766,40.147],[33.05009,40.14524],[33.05231,40.14631],[33.05138,40.14908],[33.05376,40.14929],[33.05407,40.15003],[33.05693,40.151],[33.05741,40.15012],[33.06064,40.1524],[33.05947,40.15287],[33.0599,40.15388],[33.06305,40.15353],[33.06311,40.15245],[33.06618,40.15267],[33.06583,40.15722],[33.06793,40.1568],[33.07553,40.15679],[33.07988,40.16649],[33.07888,40.16679],[33.07925,40.16811],[33.07695,40.16885],[33.07766,40.17041],[33.08023,40.17064],[33.08038,40.17329],[33.07932,40.17577],[33.08047,40.17618],[33.08089,40.17954],[33.08081,40.1803],[33.07893,40.1799],[33.07572,40.18025],[33.07588,40.18182],[33.07447,40.18205],[33.07526,40.18296],[33.07228,40.18497],[33.07154,40.18756],[33.07399,40.18847],[33.07583,40.18798],[33.07688,40.19178],[33.0761,40.19229],[33.07795,40.19266],[33.07737,40.19377],[33.07471,40.19382],[33.07181,40.19867],[33.07165,40.19991],[33.07572,40.19994],[33.07674,40.20086],[33.07539,40.2044],[33.07736,40.20456],[33.0809,40.20314],[33.08906,40.2023],[33.08719,40.19971],[33.09695,40.19848],[33.10159,40.19942],[33.10274,40.19915],[33.10133,40.19235],[33.10431,40.19043],[33.10576,40.19262],[33.11134,40.18966],[33.1115,40.18873],[33.11743,40.18866],[33.11721,40.1895],[33.11975,40.19021],[33.1211,40.18877],[33.13414,40.18955],[33.13527,40.18439],[33.13854,40.18176],[33.14133,40.18051],[33.14426,40.18102],[33.15239,40.18561],[33.15396,40.18447],[33.1551,40.18217],[33.15691,40.18035],[33.15908,40.17932],[33.16146,40.18071],[33.16761,40.18178],[33.17006,40.18416],[33.17686,40.18395],[33.17718,40.18045],[33.17842,40.17755],[33.18306,40.17414],[33.18288,40.17074],[33.18474,40.16804],[33.18911,40.16941],[33.19106,40.17142],[33.19277,40.17222],[33.19992,40.17114],[33.20475,40.17249],[33.20659,40.17458],[33.20958,40.17561],[33.21275,40.17739],[33.2183,40.17749],[33.21983,40.17696],[33.22155,40.17779],[33.22462,40.17654],[33.22877,40.17578],[33.233,40.17362],[33.23654,40.17478],[33.2391,40.17822],[33.23954,40.1801],[33.24485,40.18309],[33.24903,40.19088],[33.25251,40.19352],[33.25253,40.19525],[33.25611,40.1986],[33.25631,40.20288],[33.25721,40.20518],[33.25176,40.20751],[33.24993,40.20633],[33.24885,40.20627],[33.24821,40.20697],[33.24889,40.20798],[33.24629,40.20967],[33.24276,40.21006],[33.2425,40.2133],[33.2412,40.21528],[33.24008,40.21576],[33.24005,40.21746],[33.23661,40.2189],[33.23559,40.22085],[33.23517,40.22337],[33.23326,40.22315],[33.23255,40.22357],[33.23128,40.22275],[33.22895,40.22275],[33.23022,40.22382],[33.22848,40.22485],[33.22761,40.22485],[33.2267,40.22413],[33.22618,40.22453],[33.22587,40.22516],[33.22689,40.22571],[33.22613,40.22769],[33.22476,40.22716],[33.22396,40.22743],[33.22415,40.22861],[33.22114,40.22954],[33.22069,40.23026],[33.22073,40.23107],[33.22186,40.23195],[33.2217,40.23264],[33.22037,40.23314],[33.22166,40.23329],[33.22126,40.23399],[33.2198,40.23389],[33.22018,40.23488],[33.21888,40.23495],[33.21873,40.23593],[33.2188,40.23638],[33.21967,40.23639],[33.22005,40.23771],[33.21858,40.2382],[33.21517,40.23739],[33.21525,40.23795],[33.21744,40.23838],[33.21623,40.23889],[33.21638,40.23947],[33.2173,40.24012],[33.21829,40.2399],[33.2186,40.24036],[33.21726,40.24144],[33.2176,40.24233],[33.21699,40.24288],[33.21639,40.24272],[33.21539,40.24379],[33.21231,40.24435],[33.21106,40.24381],[33.21062,40.24312],[33.21095,40.24222],[33.21003,40.2413],[33.21043,40.23991],[33.20651,40.2411],[33.20544,40.24071],[33.20418,40.24425],[33.20529,40.24661],[33.20829,40.24685],[33.20954,40.25102],[33.21142,40.25281],[33.21153,40.25384],[33.21256,40.25492],[33.21289,40.25683],[33.21381,40.25822],[33.21283,40.25979],[33.21354,40.26156],[33.21339,40.2624],[33.21512,40.26576],[33.21799,40.26423],[33.21979,40.26087],[33.22121,40.25946],[33.22082,40.25868],[33.22147,40.25868],[33.22303,40.25608],[33.22298,40.25547],[33.22606,40.25618],[33.22671,40.25556],[33.22702,40.25397],[33.229,40.25395],[33.22966,40.25443],[33.23138,40.25367],[33.23102,40.25434],[33.233,40.25584],[33.23623,40.25616],[33.23825,40.25925],[33.2399,40.25827],[33.24018,40.25703],[33.24191,40.25445],[33.24245,40.25441],[33.24233,40.25402],[33.24839,40.25162],[33.24916,40.25085],[33.2508,40.25133],[33.25095,40.252],[33.25023,40.25319],[33.25319,40.25334],[33.2543,40.25406],[33.256,40.25421],[33.25624,40.25472],[33.25897,40.25364],[33.25913,40.2531],[33.26414,40.25291],[33.2651,40.25175],[33.26632,40.25121],[33.26864,40.25144],[33.27021,40.25099],[33.27046,40.25164],[33.27223,40.25162],[33.27624,40.24969],[33.27816,40.25069],[33.27631,40.25107],[33.27672,40.25066],[33.27616,40.25042],[33.27444,40.25221],[33.27283,40.25202],[33.27205,40.25274],[33.27316,40.25361],[33.27261,40.2542],[33.27296,40.2558],[33.27245,40.25778],[33.2738,40.25867],[33.27285,40.25895],[33.27307,40.25984],[33.27369,40.25993],[33.27351,40.26053],[33.27223,40.2598],[33.27172,40.25847],[33.26936,40.25972],[33.26919,40.2601],[33.27057,40.26197],[33.26752,40.26603],[33.26686,40.26607],[33.26756,40.26651],[33.26719,40.26712],[33.26858,40.26743],[33.26891,40.26821],[33.26629,40.27106],[33.26443,40.27061],[33.26394,40.27007],[33.26266,40.27073],[33.26346,40.27134],[33.26379,40.2739],[33.26282,40.27448],[33.26237,40.2743],[33.26258,40.2734],[33.26182,40.27333],[33.26171,40.27511],[33.26103,40.27649],[33.26018,40.27681],[33.26031,40.27785],[33.25965,40.27892],[33.26029,40.27977],[33.26018,40.28047],[33.25816,40.28104],[33.25813,40.28168],[33.25703,40.28265],[33.25676,40.28582],[33.25574,40.28617],[33.25323,40.28945],[33.25144,40.29009],[33.25094,40.29244],[33.25209,40.29316],[33.25818,40.29235],[33.25886,40.29244],[33.25918,40.29324],[33.25708,40.29544],[33.25702,40.29659],[33.25567,40.29674],[33.25559,40.29764],[33.25469,40.29847],[33.25375,40.29836],[33.25296,40.29944],[33.25188,40.29986],[33.2524,40.30051],[33.25141,40.30094],[33.25147,40.3017],[33.25016,40.30291],[33.25057,40.30359],[33.24985,40.30415],[33.24867,40.30397],[33.24832,40.30433],[33.24894,40.3059],[33.25075,40.30632],[33.251,40.30807],[33.25233,40.30927],[33.25084,40.30969],[33.24652,40.30869],[33.24649,40.31054],[33.24825,40.31234],[33.25856,40.31962],[33.26506,40.32143],[33.26583,40.32177],[33.26623,40.32281],[33.26365,40.32368],[33.26084,40.3261],[33.25913,40.32928],[33.25298,40.33194],[33.25278,40.33258],[33.25001,40.3344],[33.24971,40.33416],[33.24755,40.33566],[33.24771,40.33605],[33.24714,40.33649],[33.24548,40.33718],[33.24562,40.33774],[33.24364,40.33863],[33.24291,40.33984],[33.24201,40.33966],[33.24046,40.34169],[33.2416,40.34248],[33.24458,40.34174],[33.24389,40.34454],[33.23668,40.34662],[33.23392,40.34859],[33.23448,40.34954],[33.23529,40.34918],[33.23565,40.34988],[33.23642,40.35008],[33.23705,40.35128],[33.23792,40.35122],[33.23688,40.34899],[33.2381,40.34892],[33.23961,40.34955],[33.23912,40.35046],[33.23965,40.35084],[33.24206,40.35114],[33.24198,40.35157],[33.24105,40.35159],[33.23816,40.35366],[33.23731,40.3532],[33.23612,40.35569],[33.23709,40.3559],[33.24031,40.35442],[33.24089,40.35492],[33.23808,40.35627],[33.23839,40.3569],[33.23745,40.35772],[33.2381,40.35811],[33.23663,40.35984],[33.23496,40.36003],[33.23421,40.35964],[33.23349,40.36008],[33.23349,40.36073],[33.2323,40.36058],[33.22875,40.36155],[33.22772,40.36088],[33.22714,40.36132],[33.22605,40.36082],[33.22482,40.36238],[33.22222,40.3635],[33.22014,40.36349],[33.22007,40.36438],[33.21896,40.36472],[33.2186,40.36607],[33.21568,40.3683],[33.21532,40.37002],[33.21369,40.37133],[33.21357,40.37297],[33.21274,40.37293],[33.2108,40.37579],[33.20879,40.3756],[33.20899,40.377],[33.20808,40.37675],[33.20762,40.378],[33.20663,40.37788],[33.20585,40.37956],[33.20549,40.37955],[33.20558,40.38099],[33.20613,40.38131],[33.2055,40.38173],[33.2058,40.38224],[33.20864,40.38453],[33.21385,40.3849],[33.21478,40.38655],[33.21649,40.38773],[33.21573,40.38898],[33.21567,40.3901],[33.21382,40.3907],[33.21373,40.39225],[33.21268,40.39411],[33.21314,40.39657],[33.21239,40.39935],[33.21364,40.3999],[33.21344,40.40396],[33.21439,40.40701],[33.21109,40.41284],[33.21147,40.41512],[33.20864,40.41433],[33.20241,40.4146],[33.19858,40.41589],[33.19585,40.41868],[33.19511,40.42015],[33.18648,40.4234],[33.18349,40.42679],[33.18172,40.42789],[33.18071,40.42797],[33.18003,40.42881],[33.18039,40.4321],[33.17979,40.43324],[33.17162,40.43828],[33.17212,40.44151],[33.16954,40.4426],[33.16728,40.44471],[33.16725,40.44725],[33.16429,40.45164],[33.16242,40.45202],[33.16078,40.45376],[33.15651,40.45635],[33.15555,40.45749],[33.15404,40.46188],[33.15589,40.46403],[33.15374,40.46648],[33.15126,40.46722],[33.14814,40.46972],[33.14681,40.46969],[33.14433,40.46844],[33.14535,40.46678],[33.14488,40.46587],[33.14023,40.46785],[33.13728,40.46422],[33.13532,40.46436],[33.13517,40.46575],[33.13317,40.46619],[33.13436,40.46784],[33.13664,40.46823],[33.14139,40.47215],[33.14125,40.4727],[33.13024,40.48077],[33.13054,40.47578],[33.12439,40.47435],[33.11875,40.47073],[33.11516,40.47168],[33.10734,40.46974],[33.1036,40.46493],[33.07796,40.46335],[33.06786,40.45729],[33.05958,40.45696],[33.05671,40.45756],[33.05316,40.46132],[33.04551,40.46401],[33.04058,40.46446],[33.03665,40.46574],[33.03631,40.46776],[33.02601,40.47125],[33.01853,40.46612],[32.99964,40.46146],[32.99708,40.46162],[32.98995,40.46325],[32.98689,40.46582],[32.98357,40.47006],[32.98397,40.47557],[32.98266,40.47843],[32.97986,40.48147],[32.97805,40.48473],[32.98078,40.48588],[32.98147,40.48722],[32.97843,40.49417],[32.97492,40.49745],[32.98569,40.50407],[32.9875,40.50617],[32.99254,40.50535],[32.99245,40.5074],[32.99185,40.50925],[32.97785,40.51875],[32.97103,40.52582],[32.97048,40.5368],[32.9698,40.5376],[32.97044,40.53776],[32.96831,40.53738],[32.96822,40.53826],[32.96681,40.54021],[32.96772,40.54133],[32.96659,40.54292],[32.96896,40.54412],[32.96918,40.54591],[32.96693,40.54668],[32.96527,40.54584],[32.96469,40.54438],[32.9619,40.54169],[32.96098,40.54195],[32.96087,40.54291],[32.9602,40.54332],[32.95962,40.54231],[32.95769,40.54257],[32.95796,40.54152],[32.95648,40.54163],[32.95561,40.54057],[32.95272,40.54001],[32.95137,40.54002],[32.95035,40.54156],[32.95057,40.54206],[32.94958,40.54169],[32.94942,40.53943],[32.94824,40.53683],[32.94615,40.53543],[32.94416,40.535],[32.94437,40.53299],[32.9455,40.53],[32.94543,40.52827],[32.9447,40.52736],[32.94034,40.52585],[32.93774,40.52363],[32.93359,40.52384],[32.93035,40.52255],[32.92533,40.52491],[32.9206,40.51882],[32.91607,40.51836],[32.91421,40.51686],[32.91019,40.51587],[32.90844,40.51622],[32.9066,40.51751],[32.90496,40.51759],[32.89632,40.5147],[32.89441,40.51619],[32.89198,40.50966],[32.88949,40.50594],[32.88188,40.48189],[32.87984,40.48034],[32.87766,40.47999],[32.87727,40.47948],[32.87764,40.47778],[32.87506,40.47427],[32.8733,40.47336],[32.87357,40.46968],[32.87467,40.46873],[32.87475,40.468],[32.87716,40.46758],[32.87844,40.46537],[32.87853,40.46435],[32.87646,40.46321],[32.87591,40.46236],[32.87578,40.46017],[32.87297,40.45945],[32.87325,40.46019],[32.87192,40.46035],[32.87237,40.45979],[32.87161,40.45938],[32.872,40.45895],[32.87093,40.4576],[32.86776,40.45986],[32.86711,40.45966],[32.86723,40.45885],[32.8657,40.45861],[32.86473,40.4579],[32.86312,40.45794],[32.86282,40.45764],[32.86332,40.45746],[32.86336,40.4566],[32.86228,40.45671],[32.86479,40.45568],[32.8626,40.45158],[32.86704,40.45077],[32.86786,40.44762],[32.86472,40.44643],[32.86274,40.44442],[32.86112,40.44481],[32.86057,40.44398],[32.86012,40.44013],[32.85869,40.43958],[32.85754,40.43743],[32.85771,40.4337],[32.85569,40.43297],[32.85605,40.43076],[32.85454,40.42976],[32.85396,40.4258],[32.85294,40.42559],[32.85192,40.42631],[32.84863,40.4267],[32.84923,40.42409],[32.84816,40.42374],[32.84777,40.42262],[32.84605,40.42242],[32.84666,40.41886],[32.85331,40.41462],[32.85679,40.4139],[32.86274,40.4149],[32.86742,40.41511],[32.86943,40.41618],[32.87462,40.41012],[32.88143,40.40513],[32.88128,40.40344],[32.88054,40.40199],[32.88143,40.40059],[32.88267,40.40007],[32.88487,40.39624],[32.88555,40.39413],[32.88817,40.39322],[32.891,40.39312],[32.89407,40.39183],[32.89942,40.38698],[32.90093,40.38638],[32.90274,40.38473],[32.9036,40.38337],[32.90254,40.38129],[32.90024,40.38037],[32.89757,40.38152],[32.89571,40.38114],[32.89436,40.37707],[32.89444,40.375],[32.89369,40.37444],[32.89144,40.37432],[32.88953,40.37329],[32.89064,40.37207],[32.89191,40.36901],[32.89168,40.36436],[32.89225,40.36209],[32.89342,40.3608],[32.8964,40.35913],[32.89392,40.35497],[32.89457,40.35305],[32.89403,40.34991],[32.89476,40.34732],[32.89328,40.34384],[32.89132,40.34182],[32.88805,40.33964],[32.88039,40.33756],[32.87471,40.3381],[32.87336,40.33781],[32.87386,40.33668],[32.87435,40.33161],[32.87234,40.32758],[32.87374,40.32664],[32.87374,40.32617],[32.87245,40.32568],[32.87133,40.32421],[32.87266,40.3227],[32.86715,40.32256],[32.86082,40.32049],[32.85925,40.319],[32.85956,40.31761],[32.86459,40.31695],[32.86514,40.31439],[32.86473,40.31214],[32.86229,40.31185],[32.86061,40.31311],[32.85823,40.31274],[32.8556,40.3116],[32.84855,40.30625],[32.84773,40.30385],[32.84386,40.30332],[32.83642,40.29951],[32.83266,40.29844],[32.8253,40.29505],[32.81951,40.29441],[32.81744,40.29354],[32.81602,40.29224],[32.81242,40.29545],[32.81199,40.29259],[32.81091,40.29036],[32.81006,40.28879],[32.80827,40.28746],[32.80856,40.28535],[32.8107,40.28474],[32.81122,40.28361],[32.81322,40.28576],[32.81802,40.28541],[32.81809,40.28443],[32.81954,40.28407],[32.81916,40.28312],[32.82023,40.28244],[32.82089,40.28274],[32.82151,40.28142],[32.82377,40.27914],[32.82444,40.27606],[32.82533,40.27461],[32.82351,40.27396],[32.82487,40.27382],[32.82439,40.2732],[32.82642,40.27087],[32.82499,40.27041],[32.82531,40.2699],[32.82784,40.26737],[32.82913,40.2667],[32.83072,40.26467],[32.83301,40.26489],[32.83516,40.26422],[32.83447,40.262],[32.83496,40.26223],[32.83691,40.26038],[32.83768,40.2604],[32.83795,40.25913],[32.8368,40.25828],[32.83791,40.25739],[32.83691,40.2565],[32.83711,40.2551],[32.83782,40.25583],[32.83918,40.2552],[32.84014,40.25537],[32.84216,40.25378],[32.84245,40.2529],[32.84414,40.25322],[32.84456,40.25255],[32.84474,40.24794],[32.84238,40.24614],[32.84148,40.24613],[32.84149,40.24661],[32.84046,40.24646],[32.84004,40.24512],[32.83844,40.24464],[32.83534,40.24518],[32.8325,40.2441],[32.8268,40.24287],[32.81941,40.24176],[32.81405,40.23936],[32.80603,40.23769],[32.80479,40.23682]]]}},{"type":"Feature","properties":{"id":"kecioren","ad":"Keçiören","osm":"relation/1811393"},"geometry":{"type":"Polygon","coordinates":[[[32.74117,40.09505],[32.74396,40.09582],[32.74462,40.09679],[32.74651,40.10166],[32.74746,40.10582],[32.75054,40.1054],[32.75092,40.10616],[32.75325,40.10539],[32.75548,40.10608],[32.75698,40.10531],[32.75861,40.1054],[32.75998,40.10497],[32.76333,40.10229],[32.76432,40.10264],[32.76463,40.10358],[32.76774,40.10251],[32.77331,40.10371],[32.77475,40.10333],[32.77857,40.10169],[32.77915,40.10015],[32.781,40.09961],[32.78102,40.09633],[32.78783,40.09287],[32.78816,40.08906],[32.78567,40.08564],[32.78548,40.08197],[32.78745,40.08264],[32.79441,40.07795],[32.80207,40.07185],[32.8,40.06856],[32.80328,40.06757],[32.80588,40.06227],[32.80609,40.05657],[32.80731,40.05284],[32.80681,40.05165],[32.80781,40.05098],[32.80695,40.05046],[32.80669,40.049],[32.80611,40.04852],[32.80693,40.04776],[32.80626,40.04776],[32.80476,40.04363],[32.80697,40.04374],[32.80725,40.04215],[32.80659,40.03888],[32.80302,40.03594],[32.80326,40.03535],[32.80129,40.03275],[32.80145,40.02989],[32.80006,40.02784],[32.79727,40.02549],[32.79035,40.01604],[32.79414,40.01186],[32.79657,40.01009],[32.79655,40.00786],[32.79752,40.00419],[32.79665,40.00121],[32.79689,39.99988],[32.79648,39.99818],[32.7989,39.99584],[32.79978,39.99426],[32.80022,39.99231],[32.79956,39.99115],[32.80034,39.99102],[32.80262,39.9888],[32.80671,39.98837],[32.80823,39.98652],[32.80969,39.98615],[32.81022,39.98537],[32.81143,39.9856],[32.81243,39.98271],[32.812,39.98214],[32.81201,39.98038],[32.81115,39.97973],[32.81117,39.97701],[32.81263,39.97582],[32.81297,39.97425],[32.81371,39.97426],[32.81361,39.97354],[32.8145,39.97281],[32.81482,39.97184],[32.81623,39.97142],[32.81886,39.97163],[32.81887,39.96892],[32.83215,39.96885],[32.835,39.97012],[32.85015,39.95796],[32.86547,39.95926],[32.87313,39.96592],[32.87739,39.97103],[32.88437,39.9747],[32.8854,39.97635],[32.88591,39.98094],[32.88663,39.9826],[32.88893,39.9836],[32.89245,39.98342],[32.89442,39.98405],[32.89999,39.99146],[32.90037,39.99304],[32.90012,39.9942],[32.89704,39.99728],[32.89773,40.0018],[32.89928,40.00378],[32.89933,40.00445],[32.89745,40.00662],[32.89695,40.00789],[32.89819,40.0146],[32.89637,40.02017],[32.89621,40.02286],[32.89282,40.02401],[32.88826,40.02379],[32.88933,40.02229],[32.88773,40.02123],[32.88429,40.02367],[32.88392,40.02643],[32.88208,40.02877],[32.87472,40.0305],[32.87321,40.03394],[32.87661,40.03668],[32.87619,40.04094],[32.87754,40.04251],[32.87651,40.04353],[32.87714,40.04378],[32.8755,40.04545],[32.87548,40.04774],[32.88049,40.04856],[32.88018,40.04947],[32.88381,40.04997],[32.88366,40.05078],[32.88637,40.05172],[32.88626,40.05305],[32.88502,40.05424],[32.88555,40.05584],[32.88828,40.05655],[32.88985,40.05807],[32.88992,40.05958],[32.88881,40.0596],[32.88863,40.06005],[32.87824,40.05982],[32.87801,40.06144],[32.88015,40.0625],[32.87986,40.06327],[32.88092,40.06434],[32.88153,40.06577],[32.88145,40.06687],[32.88277,40.06826],[32.8842,40.06896],[32.88498,40.07023],[32.88284,40.07373],[32.88026,40.07584],[32.88236,40.08434],[32.88026,40.09145],[32.87894,40.09166],[32.87714,40.09103],[32.87513,40.09204],[32.87402,40.09458],[32.87131,40.0948],[32.87075,40.09607],[32.86853,40.09665],[32.86756,40.09777],[32.86833,40.09803],[32.86805,40.10058],[32.86573,40.1011],[32.86519,40.10182],[32.86213,40.10028],[32.85597,40.09874],[32.85472,40.09793],[32.85245,40.09848],[32.84964,40.09812],[32.84041,40.09484],[32.8377,40.09535],[32.83622,40.09455],[32.82928,40.09406],[32.82799,40.09338],[32.82761,40.09365],[32.82796,40.09524],[32.82748,40.09741],[32.82163,40.09697],[32.81744,40.09824],[32.81397,40.10028],[32.81404,40.10213],[32.81325,40.10462],[32.81102,40.10405],[32.80968,40.10545],[32.80972,40.10658],[32.80775,40.10681],[32.80772,40.1076],[32.80864,40.10746],[32.80856,40.10801],[32.80934,40.10807],[32.80677,40.10973],[32.80585,40.11113],[32.80418,40.11201],[32.80283,40.1136],[32.80415,40.11603],[32.80365,40.11751],[32.79862,40.11728],[32.79731,40.11938],[32.79806,40.11971],[32.79834,40.12071],[32.80028,40.12257],[32.80121,40.1221],[32.80233,40.12279],[32.80233,40.124],[32.80416,40.12397],[32.80467,40.12569],[32.8073,40.12713],[32.80608,40.12788],[32.80523,40.13012],[32.80557,40.1302],[32.8051,40.13088],[32.80572,40.13115],[32.80607,40.13208],[32.80517,40.13345],[32.81208,40.14294],[32.81112,40.14294],[32.8119,40.14354],[32.81205,40.14526],[32.81392,40.14733],[32.81602,40.14846],[32.81901,40.1478],[32.82017,40.15014],[32.81989,40.15209],[32.81864,40.15385],[32.81601,40.15614],[32.81763,40.1565],[32.81938,40.15811],[32.82229,40.15858],[32.82316,40.15966],[32.82448,40.15995],[32.82479,40.16044],[32.832,40.16165],[32.83632,40.16571],[32.84223,40.16628],[32.84307,40.1695],[32.83875,40.17441],[32.83899,40.17971],[32.83844,40.18368],[32.83874,40.18706],[32.83994,40.1909],[32.83984,40.19171],[32.8391,40.1924],[32.83935,40.19743],[32.81868,40.19382],[32.81642,40.19136],[32.81363,40.18943],[32.81297,40.18797],[32.811,40.18714],[32.80711,40.18628],[32.80442,40.18751],[32.79586,40.18654],[32.79625,40.18579],[32.7953,40.18454],[32.79534,40.1804],[32.78974,40.17943],[32.78797,40.17808],[32.78649,40.17636],[32.78731,40.17406],[32.78649,40.17188],[32.78352,40.17096],[32.78369,40.16459],[32.78314,40.16199],[32.78391,40.16052],[32.78211,40.15788],[32.78546,40.1544],[32.78612,40.15176],[32.78448,40.15146],[32.78489,40.14987],[32.78324,40.14924],[32.7814,40.15017],[32.77904,40.14954],[32.77845,40.14649],[32.77686,40.14389],[32.77325,40.14193],[32.77186,40.14019],[32.76946,40.13965],[32.76501,40.13973],[32.7576,40.14095],[32.75289,40.14049],[32.75126,40.13676],[32.74969,40.12907],[32.74855,40.11732],[32.74678,40.11512],[32.74684,40.11382],[32.7478,40.11237],[32.74317,40.10975],[32.74117,40.09505]]]}},{"type":"Feature","properties":{"id":"altindag","ad":"Altındağ","osm":"relation/1812317"},"geometry":{"type":"Polygon","coordinates":[[[32.83074,39.94595],[32.84058,39.93888],[32.83931,39.93748],[32.83991,39.93691],[32.84145,39.93656],[32.84571,39.93427],[32.85065,39.92982],[32.85546,39.92908],[32.8674,39.92882],[32.87228,39.9334],[32.87209,39.93409],[32.87595,39.93453],[32.88005,39.94159],[32.88165,39.94228],[32.88938,39.94332],[32.88897,39.94413],[32.89061,39.94445],[32.89124,39.9458],[32.89059,39.94722],[32.8908,39.94799],[32.89706,39.95531],[32.89758,39.95513],[32.89808,39.95586],[32.91047,39.95179],[32.9113,39.95332],[32.90938,39.95398],[32.91051,39.95604],[32.91657,39.9541],[32.91679,39.95457],[32.92095,39.95639],[32.92471,39.95956],[32.93284,39.96226],[32.93676,39.96186],[32.94147,39.96362],[32.9445,39.96409],[32.94755,39.96548],[32.95165,39.96833],[32.95633,39.97042],[32.96247,39.9722],[32.96204,39.96673],[32.96235,39.96515],[32.96135,39.9648],[32.96734,39.95954],[32.96749,39.95892],[32.97018,39.95757],[32.9715,39.95582],[32.97065,39.95435],[32.97277,39.95408],[32.97099,39.95278],[32.9696,39.95239],[32.97046,39.95172],[32.97065,39.9498],[32.97352,39.94961],[32.97531,39.95049],[32.97649,39.95018],[32.98045,39.94751],[32.98377,39.94872],[32.98552,39.9511],[32.98383,39.95162],[32.98473,39.95369],[32.98574,39.95374],[32.98885,39.96117],[32.99593,39.96467],[32.99849,39.96729],[32.99957,39.96775],[33.00528,39.96786],[33.00554,39.97081],[33.01112,39.97378],[33.01631,39.9754],[33.01516,39.97734],[33.0189,39.98027],[33.02205,39.98093],[33.02699,39.97992],[33.03768,39.98348],[33.05197,39.98596],[33.05706,39.98892],[33.06865,39.99043],[33.07325,39.99069],[33.07761,39.97515],[33.08507,39.97312],[33.08426,39.97151],[33.07868,39.96924],[33.08301,39.96273],[33.0839,39.96241],[33.0917,39.96305],[33.08962,39.97146],[33.09135,39.97915],[33.097,39.98666],[33.0929,39.98768],[33.11073,39.99982],[33.10967,40.00564],[33.11343,40.00953],[33.10875,40.01911],[33.113,40.02091],[33.11214,40.02209],[33.1115,40.02464],[33.11684,40.0269],[33.1172,40.0285],[33.11587,40.02973],[33.10994,40.02759],[33.1006,40.0266],[33.09401,40.02407],[33.08953,40.02329],[33.08559,40.02365],[33.08358,40.03005],[33.07997,40.03221],[33.07816,40.03895],[33.07605,40.04058],[33.06968,40.0472],[33.06376,40.04872],[33.05532,40.04917],[33.05317,40.05189],[33.0507,40.0507],[33.05044,40.04985],[33.0496,40.04971],[33.04815,40.04847],[33.04545,40.04831],[33.0451,40.04745],[33.04379,40.0473],[33.04302,40.04457],[33.03706,40.04593],[33.0364,40.04497],[33.03364,40.04474],[33.03138,40.04594],[33.02922,40.04601],[33.02671,40.041],[33.02233,40.03833],[33.01965,40.03761],[33.01092,40.04283],[33.00391,40.04351],[32.99976,40.04766],[32.99559,40.04731],[32.99561,40.04699],[32.98727,40.04714],[32.98692,40.04631],[32.98411,40.04636],[32.98473,40.0449],[32.98141,40.03992],[32.97882,40.04134],[32.97827,40.04275],[32.97639,40.04165],[32.97429,40.0443],[32.97123,40.04354],[32.96977,40.04189],[32.96958,40.04037],[32.9683,40.04019],[32.96612,40.0431],[32.96393,40.04414],[32.96279,40.04439],[32.961,40.04395],[32.96023,40.04457],[32.95876,40.0508],[32.95364,40.05002],[32.95083,40.05027],[32.9411,40.04931],[32.93724,40.05103],[32.93324,40.05051],[32.93182,40.04974],[32.92744,40.04932],[32.92656,40.04896],[32.92498,40.04638],[32.92595,40.04495],[32.92018,40.0428],[32.92055,40.04225],[32.92295,40.04165],[32.92144,40.04021],[32.9183,40.04196],[32.91671,40.04174],[32.91704,40.04124],[32.91623,40.04092],[32.91505,40.04207],[32.91216,40.04027],[32.90813,40.03923],[32.90777,40.03814],[32.9063,40.03718],[32.90957,40.03508],[32.91038,40.03327],[32.90902,40.03116],[32.91149,40.0284],[32.91048,40.02687],[32.91091,40.02622],[32.91218,40.02586],[32.91216,40.02466],[32.90896,40.02468],[32.90812,40.02394],[32.90805,40.02232],[32.91057,40.01844],[32.91339,40.01778],[32.91448,40.01563],[32.90854,40.01669],[32.89736,40.01731],[32.89819,40.0146],[32.89695,40.00789],[32.89745,40.00662],[32.89912,40.00506],[32.89934,40.00411],[32.89773,40.0018],[32.89704,39.99728],[32.90002,39.99438],[32.90035,39.99261],[32.89999,39.99146],[32.89532,39.98482],[32.89312,39.98354],[32.88893,39.9836],[32.88699,39.98291],[32.8861,39.98187],[32.8854,39.97635],[32.88437,39.9747],[32.87739,39.97103],[32.87313,39.96592],[32.86547,39.95926],[32.85015,39.95796],[32.84706,39.96048],[32.84299,39.9596],[32.84112,39.95836],[32.83919,39.95584],[32.83553,39.95546],[32.83191,39.95367],[32.83539,39.95114],[32.83074,39.94595]]]}},{"type":"Feature","properties":{"id":"sincan","ad":"Sincan","osm":"relation/1811046"},"geometry":{"type":"Polygon","coordinates":[[[32.23446,39.79635],[32.23561,39.7911],[32.23697,39.78818],[32.23687,39.78729],[32.24677,39.78044],[32.2507,39.77882],[32.25998,39.77699],[32.26208,39.77761],[32.2637,39.77689],[32.26627,39.77661],[32.26793,39.77409],[32.27225,39.77289],[32.27562,39.76724],[32.2768,39.76695],[32.28001,39.76819],[32.28223,39.76745],[32.28138,39.76536],[32.28235,39.76477],[32.28444,39.76482],[32.28554,39.76412],[32.28443,39.76093],[32.28885,39.75975],[32.28677,39.75691],[32.29293,39.75746],[32.29314,39.75694],[32.29366,39.75698],[32.29298,39.7546],[32.29225,39.7547],[32.29185,39.75302],[32.28871,39.75269],[32.28888,39.75181],[32.28984,39.75203],[32.28979,39.75072],[32.29045,39.75038],[32.29012,39.74987],[32.29538,39.74677],[32.29742,39.74634],[32.29722,39.74377],[32.29874,39.7438],[32.29872,39.74331],[32.29797,39.74329],[32.29787,39.74279],[32.29816,39.74075],[32.29912,39.73881],[32.30049,39.7379],[32.30178,39.73772],[32.30303,39.73492],[32.30314,39.73326],[32.30266,39.73315],[32.30294,39.73222],[32.3038,39.73212],[32.30237,39.73195],[32.30249,39.73145],[32.30115,39.73079],[32.3015,39.73038],[32.29842,39.72896],[32.29944,39.72831],[32.29515,39.72632],[32.29608,39.72507],[32.29376,39.72231],[32.29432,39.72173],[32.29168,39.7198],[32.2929,39.71868],[32.28771,39.71703],[32.2906,39.71276],[32.29089,39.71296],[32.29198,39.71208],[32.29346,39.71246],[32.29406,39.712],[32.29384,39.71254],[32.29464,39.71268],[32.29629,39.7086],[32.2982,39.70826],[32.29785,39.70904],[32.29877,39.71026],[32.29933,39.70875],[32.30196,39.70915],[32.3019,39.70875],[32.30457,39.7061],[32.3099,39.70663],[32.30959,39.70576],[32.31083,39.7036],[32.31326,39.70379],[32.3155,39.7016],[32.31605,39.70157],[32.31709,39.70403],[32.31937,39.70264],[32.32078,39.70039],[32.32407,39.70106],[32.32423,39.69995],[32.32804,39.70029],[32.32824,39.69909],[32.33187,39.69882],[32.33145,39.69813],[32.33618,39.69789],[32.33564,39.69712],[32.34111,39.69637],[32.34121,39.69584],[32.3439,39.69534],[32.34374,39.6959],[32.34772,39.69535],[32.34742,39.6943],[32.3504,39.69355],[32.35014,39.69306],[32.35109,39.69366],[32.35145,39.69338],[32.35222,39.69428],[32.35364,39.69422],[32.35338,39.69338],[32.35432,39.6931],[32.35514,39.69347],[32.35605,39.6931],[32.35403,39.68896],[32.35341,39.68588],[32.35388,39.68329],[32.35115,39.67994],[32.35142,39.67722],[32.35092,39.67603],[32.3477,39.67356],[32.3473,39.67239],[32.34387,39.67307],[32.34227,39.67197],[32.34109,39.6724],[32.34049,39.67174],[32.33886,39.6724],[32.33794,39.67366],[32.33665,39.67243],[32.3395,39.66951],[32.33759,39.66996],[32.32436,39.66826],[32.31632,39.67007],[32.31133,39.66968],[32.31056,39.6703],[32.30811,39.66696],[32.30919,39.66306],[32.30869,39.66182],[32.31136,39.65864],[32.31515,39.65778],[32.31258,39.65517],[32.31519,39.65164],[32.31441,39.64954],[32.31284,39.64994],[32.31237,39.6473],[32.31274,39.64617],[32.31083,39.64329],[32.31125,39.64208],[32.31258,39.64268],[32.31363,39.64245],[32.31327,39.63947],[32.31447,39.63846],[32.31046,39.63503],[32.31292,39.63227],[32.31211,39.62971],[32.31317,39.62695],[32.31585,39.62497],[32.31414,39.62424],[32.31582,39.62228],[32.31801,39.62231],[32.31878,39.62279],[32.32022,39.6219],[32.31906,39.62132],[32.32099,39.62023],[32.32149,39.61938],[32.32419,39.61938],[32.32494,39.61853],[32.32705,39.61813],[32.33304,39.62171],[32.33555,39.62144],[32.33568,39.62386],[32.33877,39.62696],[32.34115,39.62662],[32.34545,39.62749],[32.34679,39.62921],[32.34687,39.63068],[32.35055,39.6317],[32.35071,39.63114],[32.35582,39.63143],[32.35579,39.63285],[32.358,39.63282],[32.36253,39.6338],[32.36259,39.63263],[32.37978,39.63848],[32.38334,39.63739],[32.38366,39.63519],[32.38737,39.63139],[32.39304,39.63491],[32.3945,39.63286],[32.39499,39.63603],[32.39834,39.6386],[32.40081,39.63572],[32.40038,39.63405],[32.40227,39.63392],[32.40235,39.63218],[32.40606,39.63174],[32.40666,39.62885],[32.40973,39.62832],[32.4125,39.63212],[32.41471,39.63164],[32.4175,39.6303],[32.41844,39.62663],[32.4251,39.62835],[32.42825,39.6308],[32.43074,39.63076],[32.43512,39.63375],[32.4378,39.63422],[32.44155,39.6406],[32.44402,39.64112],[32.44647,39.64456],[32.45256,39.64481],[32.45734,39.64598],[32.4683,39.64615],[32.46889,39.64896],[32.47007,39.64948],[32.47181,39.64743],[32.47562,39.64547],[32.47742,39.64257],[32.48083,39.64243],[32.48271,39.64052],[32.4869,39.63978],[32.50009,39.63531],[32.50466,39.63683],[32.507,39.63985],[32.50691,39.64311],[32.51166,39.64588],[32.51288,39.64727],[32.51578,39.64744],[32.51535,39.64978],[32.51698,39.64939],[32.51766,39.65069],[32.51927,39.65053],[32.52246,39.65381],[32.52358,39.65333],[32.52578,39.65446],[32.52648,39.65366],[32.53027,39.65447],[32.53276,39.65397],[32.53407,39.65518],[32.53576,39.65461],[32.53605,39.65324],[32.538,39.65385],[32.54023,39.65841],[32.53859,39.65917],[32.54103,39.66391],[32.54575,39.66333],[32.54496,39.66547],[32.54799,39.66795],[32.55166,39.66794],[32.55569,39.66609],[32.55961,39.66293],[32.56416,39.66391],[32.56299,39.66521],[32.56883,39.66748],[32.56805,39.6691],[32.56859,39.6712],[32.56743,39.67366],[32.57144,39.67668],[32.56765,39.67874],[32.5693,39.68837],[32.56487,39.69018],[32.56666,39.69318],[32.56334,39.69411],[32.5638,39.69868],[32.57049,39.70709],[32.57296,39.70698],[32.57338,39.70909],[32.57489,39.71078],[32.57428,39.71334],[32.57157,39.713],[32.57103,39.71419],[32.57359,39.71864],[32.57699,39.72155],[32.57708,39.72318],[32.57451,39.72439],[32.57554,39.7265],[32.57262,39.72813],[32.57326,39.73181],[32.57605,39.73262],[32.57279,39.73721],[32.57109,39.73729],[32.5721,39.73912],[32.57353,39.73941],[32.57097,39.74879],[32.56755,39.74831],[32.56607,39.74973],[32.5675,39.75184],[32.56307,39.75527],[32.56163,39.75287],[32.55697,39.75177],[32.55646,39.74962],[32.55194,39.74994],[32.55104,39.7515],[32.53773,39.754],[32.53693,39.75611],[32.53554,39.75665],[32.53192,39.76111],[32.5308,39.76012],[32.52722,39.76237],[32.52206,39.76245],[32.52024,39.75755],[32.51643,39.75917],[32.50779,39.75704],[32.49874,39.75197],[32.49533,39.75149],[32.48873,39.75728],[32.48431,39.76485],[32.48357,39.7669],[32.48166,39.76888],[32.48078,39.77675],[32.48466,39.78869],[32.48887,39.79512],[32.49166,39.80323],[32.49417,39.8029],[32.50382,39.80771],[32.49992,39.81175],[32.4983,39.82241],[32.50241,39.82869],[32.49399,39.83308],[32.49049,39.83411],[32.49965,39.83855],[32.5225,39.84567],[32.53114,39.84258],[32.53495,39.84921],[32.54319,39.84532],[32.54534,39.84677],[32.55542,39.85002],[32.56208,39.85297],[32.56388,39.85323],[32.56784,39.85636],[32.56815,39.85895],[32.56682,39.86457],[32.56592,39.86633],[32.5647,39.86735],[32.56455,39.8691],[32.56711,39.86876],[32.56892,39.86914],[32.57242,39.87112],[32.58005,39.87329],[32.58424,39.875],[32.58749,39.8816],[32.5897,39.88933],[32.59237,39.89232],[32.59785,39.90214],[32.59523,39.90538],[32.59541,39.90921],[32.59335,39.91158],[32.5948,39.91454],[32.59536,39.91478],[32.595,39.91505],[32.59627,39.91648],[32.59562,39.91846],[32.59429,39.91889],[32.59431,39.92313],[32.59483,39.92501],[32.59552,39.92561],[32.59763,39.92443],[32.59817,39.92471],[32.59696,39.9261],[32.59642,39.92851],[32.59529,39.92915],[32.59555,39.93],[32.59671,39.92976],[32.59709,39.93073],[32.59599,39.93109],[32.59562,39.93293],[32.59792,39.93699],[32.60131,39.9399],[32.60233,39.93975],[32.59945,39.94231],[32.59692,39.94609],[32.59911,39.94698],[32.59948,39.94929],[32.60521,39.94854],[32.60425,39.95191],[32.60472,39.95765],[32.60547,39.96018],[32.60379,39.96052],[32.60315,39.96606],[32.60041,39.97031],[32.60071,39.97292],[32.60191,39.97256],[32.60289,39.97775],[32.60185,39.98275],[32.60251,39.98643],[32.59856,39.98787],[32.59751,39.98891],[32.60083,39.99089],[32.60129,39.99519],[32.60251,39.99615],[32.59894,39.99896],[32.5941,39.99646],[32.58845,39.9964],[32.58853,39.99712],[32.57952,39.99782],[32.57892,39.99881],[32.57925,39.99997],[32.58098,40.00108],[32.58229,40.00422],[32.58609,40.0022],[32.58641,40.00258],[32.58433,40.00362],[32.58258,40.00612],[32.5807,40.00771],[32.57814,40.00854],[32.57818,40.00758],[32.57337,40.00742],[32.57086,40.01084],[32.56433,40.01441],[32.5739,40.02671],[32.57472,40.02834],[32.57498,40.03098],[32.57408,40.03764],[32.57227,40.04237],[32.5736,40.04528],[32.57696,40.04819],[32.58338,40.05569],[32.58007,40.05728],[32.5721,40.04692],[32.55081,40.05761],[32.54275,40.06704],[32.54283,40.06814],[32.54198,40.06881],[32.56788,40.09945],[32.56116,40.10276],[32.55766,40.09844],[32.55505,40.10077],[32.55405,40.10095],[32.5518,40.10424],[32.54796,40.1064],[32.5465,40.10951],[32.53926,40.11803],[32.53775,40.11785],[32.53278,40.1197],[32.5327,40.12167],[32.53005,40.12465],[32.5288,40.12464],[32.52513,40.12706],[32.52556,40.1277],[32.52367,40.12823],[32.52446,40.12894],[32.52296,40.1298],[32.51772,40.13795],[32.51165,40.14501],[32.51279,40.14929],[32.51593,40.15604],[32.51086,40.15736],[32.50198,40.15457],[32.49923,40.1513],[32.48851,40.1457],[32.48655,40.14335],[32.48702,40.14043],[32.48425,40.13722],[32.4806,40.13169],[32.4748,40.1261],[32.47434,40.12417],[32.47226,40.12066],[32.47085,40.11934],[32.47127,40.11802],[32.46822,40.11435],[32.46699,40.11213],[32.46602,40.10981],[32.46598,40.1083],[32.46447,40.1059],[32.46398,40.10414],[32.46276,40.10422],[32.45895,40.1003],[32.46032,40.10059],[32.46157,40.09944],[32.46102,40.09842],[32.46367,40.09663],[32.46047,40.09576],[32.45946,40.09445],[32.45969,40.09385],[32.45885,40.09377],[32.4581,40.09295],[32.4597,40.09061],[32.45937,40.09035],[32.45998,40.08885],[32.45991,40.08838],[32.45792,40.08805],[32.45892,40.08699],[32.45845,40.08563],[32.45748,40.08553],[32.45651,40.08406],[32.45502,40.08415],[32.45357,40.08577],[32.45308,40.08579],[32.4524,40.08534],[32.45231,40.08385],[32.45058,40.08326],[32.45081,40.08232],[32.44901,40.08171],[32.44867,40.08215],[32.44748,40.08186],[32.44547,40.08338],[32.4436,40.08305],[32.44236,40.08374],[32.44088,40.08266],[32.43939,40.08064],[32.43739,40.08094],[32.43461,40.07961],[32.434,40.08001],[32.43402,40.0826],[32.43148,40.08295],[32.43038,40.08368],[32.4288,40.08357],[32.42716,40.08277],[32.42699,40.08352],[32.42425,40.08156],[32.42437,40.08197],[32.42286,40.08264],[32.4221,40.08129],[32.41778,40.08154],[32.41546,40.07982],[32.4152,40.07685],[32.41597,40.0765],[32.41276,40.0731],[32.41463,40.073],[32.4139,40.07043],[32.41256,40.06936],[32.41178,40.06963],[32.41164,40.06907],[32.40588,40.0669],[32.40709,40.06363],[32.40645,40.06276],[32.39989,40.05984],[32.40157,40.0585],[32.40117,40.05649],[32.40258,40.05515],[32.40492,40.0546],[32.40404,40.05141],[32.4062,40.04737],[32.40794,40.04543],[32.41024,40.04762],[32.42648,40.04734],[32.42162,40.04335],[32.41874,40.03951],[32.41186,40.03533],[32.41352,40.03134],[32.41386,40.02826],[32.41566,40.02258],[32.41758,40.0201],[32.41946,40.01621],[32.41279,40.00989],[32.40744,40.00255],[32.40781,39.99479],[32.40981,39.992],[32.39535,39.98336],[32.38819,39.98254],[32.40088,39.97773],[32.41716,39.97885],[32.41868,39.97981],[32.41944,39.98097],[32.42529,39.98171],[32.42557,39.98205],[32.42514,39.9825],[32.42432,39.98235],[32.42621,39.98389],[32.43044,39.98389],[32.43672,39.9813],[32.44079,39.97752],[32.44846,39.97568],[32.45191,39.97226],[32.45104,39.97028],[32.44431,39.96805],[32.44328,39.96636],[32.44212,39.96551],[32.44299,39.96412],[32.45141,39.95697],[32.46263,39.96172],[32.48478,39.94989],[32.48376,39.94956],[32.48431,39.94917],[32.47524,39.94532],[32.4714,39.925],[32.47213,39.91918],[32.47078,39.9167],[32.46755,39.91276],[32.46654,39.90932],[32.46648,39.90717],[32.46431,39.90498],[32.46388,39.90377],[32.46208,39.90253],[32.45654,39.90487],[32.45417,39.90439],[32.45228,39.90276],[32.44997,39.89577],[32.44838,39.89256],[32.44896,39.89078],[32.45492,39.88541],[32.454,39.88461],[32.45429,39.88381],[32.44979,39.87548],[32.44189,39.87207],[32.43768,39.87238],[32.43493,39.87466],[32.43322,39.87517],[32.43238,39.87777],[32.43294,39.8785],[32.43211,39.87884],[32.43132,39.88151],[32.43193,39.88395],[32.42988,39.88421],[32.42735,39.88383],[32.42694,39.8849],[32.42496,39.88466],[32.42525,39.88595],[32.42185,39.88668],[32.42169,39.88715],[32.41954,39.88622],[32.41939,39.8869],[32.41565,39.88837],[32.41594,39.88869],[32.41503,39.88927],[32.41264,39.88854],[32.41108,39.8872],[32.41046,39.88803],[32.40958,39.88757],[32.40782,39.88941],[32.40847,39.89035],[32.40723,39.89104],[32.406,39.89437],[32.40494,39.8944],[32.40465,39.89499],[32.40363,39.89476],[32.40111,39.89944],[32.39561,39.899],[32.39363,39.8971],[32.39452,39.89593],[32.39074,39.89503],[32.39087,39.89423],[32.38447,39.89283],[32.38383,39.89332],[32.38185,39.89262],[32.38274,39.89158],[32.38222,39.89153],[32.38243,39.89056],[32.38339,39.89002],[32.38289,39.88877],[32.38189,39.88863],[32.38117,39.89127],[32.38047,39.89138],[32.38011,39.89137],[32.3803,39.89046],[32.37957,39.89033],[32.37884,39.89086],[32.37813,39.89025],[32.37861,39.88958],[32.37504,39.88958],[32.3759,39.88683],[32.37559,39.88605],[32.37605,39.88429],[32.37652,39.88424],[32.37704,39.88154],[32.37608,39.87589],[32.37506,39.87371],[32.37493,39.87232],[32.37346,39.87063],[32.3734,39.8703],[32.3741,39.87017],[32.37408,39.86788],[32.37339,39.86652],[32.37244,39.86646],[32.37186,39.86728],[32.36974,39.86646],[32.3696,39.86387],[32.36461,39.86113],[32.36326,39.86388],[32.35506,39.86146],[32.34796,39.85337],[32.36448,39.83571],[32.35956,39.83316],[32.36566,39.82808],[32.36538,39.82365],[32.35995,39.81913],[32.36024,39.80961],[32.34248,39.79899],[32.33498,39.80203],[32.33905,39.8074],[32.33251,39.81038],[32.32322,39.83054],[32.32334,39.83631],[32.31435,39.84159],[32.31255,39.84435],[32.30641,39.84388],[32.30279,39.84593],[32.29832,39.84514],[32.29292,39.84703],[32.28957,39.84449],[32.28024,39.84932],[32.27477,39.84858],[32.26719,39.84407],[32.26339,39.83795],[32.26039,39.82971],[32.26101,39.82747],[32.25807,39.82472],[32.25406,39.8177],[32.25193,39.81167],[32.24558,39.80629],[32.24314,39.80291],[32.24067,39.80282],[32.23599,39.80035],[32.23446,39.79635]]]}},{"type":"Feature","properties":{"id":"mamak","ad":"Mamak","osm":"relation/1812319"},"geometry":{"type":"Polygon","coordinates":[[[32.87595,39.93453],[32.88182,39.93301],[32.88493,39.93189],[32.88547,39.93129],[32.88301,39.9282],[32.88256,39.92534],[32.88544,39.92352],[32.88545,39.92294],[32.88391,39.92137],[32.88045,39.92188],[32.87894,39.92146],[32.87697,39.92047],[32.87617,39.9193],[32.877,39.91836],[32.87944,39.91825],[32.88063,39.91611],[32.88013,39.91403],[32.8783,39.9128],[32.87815,39.91144],[32.87919,39.91061],[32.88175,39.91141],[32.88529,39.91084],[32.89503,39.90413],[32.89631,39.90256],[32.89789,39.90161],[32.90203,39.90148],[32.90477,39.8998],[32.90359,39.8969],[32.90118,39.89512],[32.90583,39.89374],[32.90713,39.89263],[32.90438,39.8914],[32.90524,39.89059],[32.90582,39.8876],[32.90405,39.88448],[32.89921,39.88126],[32.9094,39.87362],[32.93611,39.87235],[32.94123,39.8735],[32.94198,39.87173],[32.94179,39.87025],[32.94275,39.86737],[32.94313,39.86428],[32.94536,39.86242],[32.94646,39.85953],[32.94623,39.85767],[32.94838,39.85361],[32.94917,39.85045],[32.95218,39.84471],[32.95366,39.84401],[32.95572,39.84382],[32.95784,39.84249],[32.95898,39.84244],[32.96148,39.84295],[32.96269,39.84428],[32.96505,39.84459],[32.96473,39.84645],[32.96593,39.84746],[32.96663,39.8472],[32.97039,39.8429],[32.96708,39.83788],[32.97047,39.83585],[32.97156,39.8326],[32.97498,39.83102],[32.9788,39.83],[32.97968,39.82915],[32.97846,39.82811],[32.97918,39.82766],[32.97929,39.82636],[32.9808,39.82677],[32.98268,39.82395],[32.9852,39.82328],[32.98389,39.82169],[32.98427,39.82022],[32.98387,39.81992],[32.98519,39.8193],[32.98519,39.81796],[32.98633,39.81805],[32.98712,39.81751],[32.9866,39.81529],[32.98723,39.8131],[32.98909,39.81017],[32.99366,39.80987],[32.99376,39.80897],[32.99468,39.80906],[32.99504,39.80686],[32.9918,39.80636],[32.99192,39.80602],[32.99003,39.80462],[32.98968,39.803],[32.98881,39.8025],[32.98839,39.80001],[32.98622,39.79702],[32.98474,39.79373],[32.99074,39.79106],[32.99392,39.791],[32.99392,39.78897],[32.99523,39.78835],[32.997,39.78941],[33.00101,39.78941],[33.00046,39.7905],[33.00377,39.78918],[33.00404,39.79005],[33.00527,39.79043],[33.00435,39.79151],[33.00924,39.79167],[33.00903,39.79227],[33.01028,39.79256],[33.01089,39.79322],[33.01196,39.79316],[33.01208,39.79371],[33.01447,39.79413],[33.01824,39.79645],[33.0187,39.79561],[33.02142,39.79646],[33.02383,39.79791],[33.02592,39.79818],[33.02731,39.79961],[33.0274,39.80078],[33.01786,39.80959],[33.01752,39.81625],[33.02181,39.8181],[33.02628,39.81783],[33.03331,39.81592],[33.03975,39.81843],[33.04668,39.81958],[33.05131,39.81984],[33.06489,39.81931],[33.07125,39.82172],[33.07915,39.82581],[33.08295,39.82466],[33.08588,39.82822],[33.09554,39.83049],[33.10035,39.8328],[33.12661,39.83266],[33.1303,39.83458],[33.13717,39.83695],[33.1394,39.83728],[33.15853,39.83731],[33.14489,39.8525],[33.14721,39.85995],[33.13987,39.87052],[33.14348,39.87203],[33.14657,39.87259],[33.14687,39.87849],[33.14571,39.88103],[33.1482,39.88442],[33.15137,39.88442],[33.15476,39.88909],[33.15185,39.89403],[33.15245,39.89986],[33.16017,39.91],[33.15974,39.913],[33.16519,39.91349],[33.16747,39.91882],[33.16661,39.92205],[33.16528,39.92267],[33.16605,39.92396],[33.1676,39.92514],[33.16721,39.92731],[33.16875,39.92962],[33.13992,39.94001],[33.13356,39.95528],[33.13477,39.96015],[33.13837,39.96239],[33.13511,39.97271],[33.13983,39.97811],[33.14784,39.98386],[33.12408,40.00682],[33.113,40.02091],[33.10875,40.01911],[33.11343,40.00953],[33.10967,40.00564],[33.11073,39.99982],[33.0929,39.98768],[33.097,39.98666],[33.09135,39.97915],[33.08962,39.97146],[33.0917,39.96305],[33.0839,39.96241],[33.08301,39.96273],[33.07868,39.96924],[33.08426,39.97151],[33.08507,39.97312],[33.07761,39.97515],[33.07325,39.99069],[33.05706,39.98892],[33.05197,39.98596],[33.03768,39.98348],[33.02699,39.97992],[33.02205,39.98093],[33.0189,39.98027],[33.01516,39.97734],[33.01631,39.9754],[33.01112,39.97378],[33.00554,39.97081],[33.00528,39.96786],[32.99957,39.96775],[32.99849,39.96729],[32.99593,39.96467],[32.98885,39.96117],[32.98574,39.95374],[32.98473,39.95369],[32.98383,39.95162],[32.98552,39.9511],[32.98377,39.94872],[32.98045,39.94751],[32.97649,39.95018],[32.97531,39.95049],[32.97352,39.94961],[32.97065,39.9498],[32.97046,39.95172],[32.9696,39.95239],[32.97099,39.95278],[32.97277,39.95408],[32.97065,39.95435],[32.9715,39.95582],[32.97018,39.95757],[32.96749,39.95892],[32.96734,39.95954],[32.96135,39.9648],[32.96235,39.96515],[32.96204,39.96673],[32.96247,39.9722],[32.95633,39.97042],[32.95165,39.96833],[32.94755,39.96548],[32.9445,39.96409],[32.94147,39.96362],[32.93676,39.96186],[32.93284,39.96226],[32.92471,39.95956],[32.92095,39.95639],[32.91679,39.95457],[32.91657,39.9541],[32.91051,39.95604],[32.90938,39.95398],[32.9113,39.95332],[32.91047,39.95179],[32.89808,39.95586],[32.89758,39.95513],[32.89706,39.95531],[32.8908,39.94799],[32.89059,39.94722],[32.89124,39.9458],[32.89061,39.94445],[32.88897,39.94413],[32.88938,39.94332],[32.88825,39.94293],[32.88165,39.94228],[32.88005,39.94159],[32.87595,39.93453]]]}},{"type":"Feature","properties":{"id":"akyurt","ad":"Akyurt","osm":"relation/1667099"},"geometry":{"type":"Polygon","coordinates":[[[32.95408,40.07367],[32.95768,40.07288],[32.96314,40.07299],[32.96438,40.0716],[32.96614,40.07067],[32.97241,40.07639],[32.97663,40.07305],[32.97934,40.07239],[32.98264,40.07281],[32.98791,40.07597],[32.9865,40.07011],[32.98391,40.06539],[32.98515,40.06522],[32.98435,40.06105],[32.98344,40.0604],[32.98334,40.05977],[32.98606,40.05949],[32.98492,40.05483],[32.98435,40.05438],[32.98352,40.05204],[32.98321,40.05003],[32.9837,40.04989],[32.98357,40.04772],[32.98436,40.04769],[32.98426,40.04731],[32.98536,40.04644],[32.98692,40.04631],[32.98727,40.04714],[32.99561,40.04699],[32.99559,40.04731],[32.99976,40.04766],[33.00391,40.04351],[33.01092,40.04283],[33.01965,40.03761],[33.02233,40.03833],[33.02671,40.041],[33.02922,40.04601],[33.03138,40.04594],[33.03364,40.04474],[33.0364,40.04497],[33.03706,40.04593],[33.04302,40.04457],[33.04379,40.0473],[33.0451,40.04745],[33.04545,40.04831],[33.04815,40.04847],[33.0496,40.04971],[33.05044,40.04985],[33.0507,40.0507],[33.0519,40.0511],[33.05243,40.05187],[33.05317,40.05189],[33.05532,40.04917],[33.06376,40.04872],[33.06968,40.0472],[33.07605,40.04058],[33.07816,40.03895],[33.07997,40.03221],[33.08358,40.03005],[33.08559,40.02365],[33.08953,40.02329],[33.09401,40.02407],[33.1006,40.0266],[33.10994,40.02759],[33.12076,40.03102],[33.1255,40.03392],[33.12827,40.03811],[33.12945,40.04134],[33.13367,40.04516],[33.13817,40.04583],[33.14347,40.0484],[33.15873,40.04684],[33.15836,40.04834],[33.16039,40.0498],[33.15943,40.05114],[33.16302,40.05235],[33.17172,40.05202],[33.17675,40.05361],[33.17862,40.05491],[33.18155,40.05912],[33.18499,40.06086],[33.19381,40.06263],[33.20146,40.06324],[33.20931,40.0602],[33.21685,40.06116],[33.22399,40.06454],[33.22842,40.06328],[33.2334,40.06434],[33.23946,40.06337],[33.24851,40.06651],[33.25229,40.06957],[33.25412,40.0718],[33.25764,40.07212],[33.26236,40.07076],[33.26487,40.06767],[33.26997,40.06714],[33.28938,40.08784],[33.28168,40.08779],[33.28172,40.09434],[33.28253,40.09813],[33.28506,40.10096],[33.28332,40.10409],[33.28474,40.10769],[33.28654,40.11071],[33.28707,40.11632],[33.29136,40.12188],[33.29345,40.12824],[33.29309,40.13227],[33.2815,40.13105],[33.27817,40.1323],[33.27721,40.13205],[33.27616,40.13282],[33.27609,40.13465],[33.27524,40.13467],[33.27404,40.13724],[33.27413,40.13864],[33.26996,40.14055],[33.26985,40.14134],[33.27182,40.14199],[33.2735,40.14461],[33.27729,40.1457],[33.28266,40.14915],[33.28382,40.15199],[33.2832,40.15286],[33.28432,40.15414],[33.28776,40.15381],[33.29225,40.15429],[33.29772,40.15408],[33.30058,40.15557],[33.30521,40.16089],[33.30656,40.16423],[33.31156,40.16826],[33.31341,40.17335],[33.31719,40.17661],[33.31414,40.17823],[33.30884,40.17439],[33.30722,40.1754],[33.30841,40.17812],[33.31033,40.18038],[33.30986,40.18671],[33.30861,40.18732],[33.30637,40.18729],[33.30388,40.19454],[33.30092,40.1944],[33.2984,40.19657],[33.29878,40.19744],[33.29719,40.19852],[33.29482,40.19911],[33.29459,40.2],[33.29507,40.20116],[33.29317,40.20531],[33.29051,40.2063],[33.28643,40.21044],[33.28715,40.21296],[33.28976,40.21316],[33.28871,40.21499],[33.28732,40.21509],[33.28295,40.21825],[33.28238,40.22009],[33.28378,40.22009],[33.28467,40.22115],[33.28636,40.22102],[33.28671,40.22163],[33.28258,40.22539],[33.27878,40.22713],[33.27295,40.226],[33.27024,40.22237],[33.26461,40.21838],[33.25779,40.21658],[33.26074,40.21374],[33.26254,40.21072],[33.26252,40.20998],[33.25785,40.20535],[33.25721,40.20518],[33.25631,40.20288],[33.25611,40.1986],[33.25253,40.19525],[33.25251,40.19352],[33.24903,40.19088],[33.24485,40.18309],[33.23954,40.1801],[33.2391,40.17822],[33.23654,40.17478],[33.233,40.17362],[33.22877,40.17578],[33.22462,40.17654],[33.22155,40.17779],[33.21983,40.17696],[33.2183,40.17749],[33.21275,40.17739],[33.20958,40.17561],[33.20659,40.17458],[33.20475,40.17249],[33.19992,40.17114],[33.19277,40.17222],[33.19106,40.17142],[33.18911,40.16941],[33.18474,40.16804],[33.18288,40.17074],[33.18306,40.17414],[33.17842,40.17755],[33.17718,40.18045],[33.17686,40.18395],[33.17006,40.18416],[33.16761,40.18178],[33.16146,40.18071],[33.15908,40.17932],[33.15691,40.18035],[33.1551,40.18217],[33.15396,40.18447],[33.15239,40.18561],[33.14426,40.18102],[33.14133,40.18051],[33.13854,40.18176],[33.13527,40.18439],[33.13414,40.18955],[33.1211,40.18877],[33.11975,40.19021],[33.11721,40.1895],[33.11743,40.18866],[33.1115,40.18873],[33.11134,40.18966],[33.10576,40.19262],[33.10431,40.19043],[33.10133,40.19235],[33.10274,40.19915],[33.10159,40.19942],[33.09695,40.19848],[33.08719,40.19971],[33.08906,40.2023],[33.0809,40.20314],[33.07736,40.20456],[33.07539,40.2044],[33.07674,40.20086],[33.07572,40.19994],[33.07165,40.19991],[33.07181,40.19867],[33.07471,40.19382],[33.07737,40.19377],[33.07795,40.19266],[33.0761,40.19229],[33.07688,40.19178],[33.07583,40.18798],[33.07399,40.18847],[33.07154,40.18756],[33.07228,40.18497],[33.07526,40.18296],[33.07447,40.18205],[33.07588,40.18182],[33.07572,40.18025],[33.07893,40.1799],[33.08081,40.1803],[33.08089,40.17954],[33.08047,40.17618],[33.07932,40.17577],[33.08038,40.17329],[33.08023,40.17064],[33.07766,40.17041],[33.07695,40.16885],[33.07925,40.16811],[33.07888,40.16679],[33.07988,40.16649],[33.07553,40.15679],[33.06793,40.1568],[33.06583,40.15722],[33.06618,40.15267],[33.06311,40.15245],[33.06305,40.15353],[33.0599,40.15388],[33.05947,40.15287],[33.06064,40.1524],[33.05741,40.15012],[33.05693,40.151],[33.05407,40.15003],[33.05376,40.14929],[33.05138,40.14908],[33.05231,40.14631],[33.05009,40.14524],[33.04766,40.147],[33.04755,40.14791],[33.04608,40.14894],[33.04527,40.15075],[33.04272,40.15249],[33.04189,40.1556],[33.04016,40.15809],[33.03793,40.15899],[33.0357,40.15862],[33.03616,40.15588],[33.03154,40.15104],[33.01991,40.14624],[33.01647,40.14406],[33.01988,40.13953],[33.01746,40.13451],[33.01461,40.13003],[33.01394,40.128],[33.01288,40.1269],[33.00997,40.1207],[33.00468,40.12067],[33.0038,40.11813],[33.00137,40.11804],[33.00189,40.11655],[32.99928,40.11733],[32.99448,40.11488],[32.99191,40.11414],[32.98811,40.11433],[32.98989,40.11327],[32.98971,40.11224],[32.98846,40.11119],[32.98744,40.11131],[32.98616,40.10996],[32.98411,40.11107],[32.9827,40.11094],[32.98244,40.10957],[32.97937,40.10785],[32.97999,40.10684],[32.97877,40.10625],[32.97855,40.10546],[32.97742,40.10565],[32.9769,40.10397],[32.97599,40.10334],[32.97609,40.10209],[32.97485,40.09782],[32.97251,40.09793],[32.9703,40.09698],[32.97017,40.09502],[32.96922,40.09384],[32.96708,40.09278],[32.96692,40.0912],[32.96546,40.08872],[32.96565,40.08712],[32.96265,40.08589],[32.9619,40.0851],[32.96274,40.08442],[32.96143,40.08346],[32.95743,40.0834],[32.95679,40.0793],[32.95429,40.07779],[32.9549,40.07509],[32.95408,40.07367]]]}}]}